_id,lat,lon,name,street_address,suburb,seats,industry_code,industry_desc,ref
1,-37.799808,144.993784,77 Melbourne Bento,268 Johnston St Abbotsford VIC 3067,Abbotsford,,4511,Cafes and Restaurants,
2,-37.8084889,144.9999844,8 Murray St,8 Murray St Abbotsford VIC 3067,Abbotsford,,4511,Cafes and Restaurants,
3,-37.8096896,144.9926059,ALDI Stores,313-321 Victoria St Abbotsford VIC 3067,Abbotsford,,4110,Supermarket and Grocery Stores,
4,-37.8004034,144.9973958,Admiral Cheng Ho,325 Johnston St Abbotsford VIC 3067,Abbotsford,,4511,Cafes and Restaurants,
5,-37.809625,144.992265,Anothai,247 Victoria St Abbotsford VIC 3067,Abbotsford,,4110,Supermarket and Grocery Stores,
6,-37.8051086,144.9935066,Ashvatha Ltd,112/205 Gipps St Abbotsford VIC 3067,Abbotsford,,4129,Other Specialised Food Retailing,
7,-37.8088212,144.9960576,Au79,27-29 Nicholson St Abbotsford VIC 3067,Abbotsford,,4511,Cafes and Restaurants,
8,-37.8002296,144.9932808,Aurora Pizza,230 Hoddle St Abbotsford VIC 3067,Abbotsford,,4512,Takeaway Food Services,
9,-37.7982058,144.9981094,Australian Education Union,126-142 Trenerry Cres Abbotsford VIC 3067,Abbotsford,,4513,Catering Services,
10,-37.8096896,144.9926059,Aviary Hotel,271-273 Victoria St Abbotsford VIC 3067,Abbotsford,,4511,Cafes and Restaurants,
11,-37.8096896,144.9926059,BWS Abbotsford,313-321 Victoria St Abbotsford VIC 3067,Abbotsford,,4129,Other Specialised Food Retailing,
12,-37.8096896,144.9926059,Baker's Arms Hotel,355 Victoria St Abbotsford VIC 3067,Abbotsford,,4511,Cafes and Restaurants,
13,-37.8040556,144.9979609,Bibendum Wine Co,3 Harper St Abbotsford VIC 3067,Abbotsford,,3601,General Line Grocery Wholesaling,
14,-37.805148,144.992405,Billy's Pizza Joint,110 Hoddle St Abbotsford VIC 3067,Abbotsford,,4512,Takeaway Food Services,
15,-37.8096896,144.9926059,Bing's Buns Bao,371 Victoria St Abbotsford VIC 3067,Abbotsford,,4511,Cafes and Restaurants,
16,-37.7999341,144.9939445,Bodriggy Brewpub,243-245 Johnston St Abbotsford VIC 3067,Abbotsford,,4511,Cafes and Restaurants,
17,-37.80004,144.993764,Bomb Café,229 Johnston St Abbotsford VIC 3067,Abbotsford,,4511,Cafes and Restaurants,
18,-37.8096896,144.9926059,Bonbons Bakery Abbotsford,2/313 Victoria St Abbotsford VIC 3067,Abbotsford,,1174,Bakery Product Manufacturing (Non-factory based),
19,-37.8046,144.9998,Breadtop Factory,3/204-206 Gipps St Abbotsford VIC 3067,Abbotsford,,1140,Fruit and Vegetable Processing,
20,-37.8053205,144.99235,Burgers a Gogo,106 Hoddle St Abbotsford VIC 3067,Abbotsford,,4511,Cafes and Restaurants,
21,-37.8030856,145.0037161,Bursaria Fine Foods,1 St Heliers St Abbotsford VIC 3067,Abbotsford,,4513,Catering Services,
22,-37.7999341,144.9939445,Cafe Vit,413 Johnston St Abbotsford VIC 3067,Abbotsford,,4511,Cafes and Restaurants,
23,-37.8093898,144.9914891,Caltex Starmart Abbotsford,28-40 Hoddle St Abbotsford VIC 3067,Abbotsford,,4110,Supermarket and Grocery Stores,
24,-37.8096183,145.0008213,Carlton & United Breweries,36-80 Church St Abbotsford VIC 3067,Abbotsford,,1140,Fruit and Vegetable Processing,
25,-37.8087894,145.0055335,Carlton & United Breweries-Spotless (Brewery Only),4 Southampton Cres Abbotsford VIC 3067,Abbotsford,,4511,Cafes and Restaurants,
26,-37.8096183,145.0008213,Carlton Brewhouse,36-80 Church St Abbotsford VIC 3067,Abbotsford,,4511,Cafes and Restaurants,
27,-37.8096896,144.9926059,Chimac the Korean bistro,345 Victoria St Abbotsford VIC 3067,Abbotsford,,4511,Cafes and Restaurants,
28,-37.7982058,144.9981094,Chomp Café,1 Trenerry Cres Abbotsford VIC 3067,Abbotsford,,4511,Cafes and Restaurants,
29,-37.80733,144.992278,City East Motel,181 Langridge St Abbotsford VIC 3067,Abbotsford,,4129,Other Specialised Food Retailing,
30,-37.8096896,144.9926059,Cloud 9 Smoke Shop & Accessories,441-443 Victoria St Abbotsford VIC 3067,Abbotsford,,4129,Other Specialised Food Retailing,
31,-37.8096896,144.9926059,Coffee Corner,8/313 Victoria St Abbotsford VIC 3067,Abbotsford,,4511,Cafes and Restaurants,
32,-37.8074604,144.9930449,Coffee Peddlr,203 Langridge St Abbotsford VIC 3067,Abbotsford,,4511,Cafes and Restaurants,
33,-37.8086792,145.0067071,Coffee Supreme Pty Ltd,28 Grosvenor St Abbotsford VIC 3067,Abbotsford,,4511,Cafes and Restaurants,
34,-37.7983218,144.9937711,Coles Express Abbotsford,266-278 Hoddle St Abbotsford VIC 3067,Abbotsford,,4110,Supermarket and Grocery Stores,
35,-37.8033213,145.0064295,Collingwood Children's Farm,18 St Heliers St Abbotsford VIC 3067,Abbotsford,,1140,Fruit and Vegetable Processing,
36,-37.8033213,145.0064295,Collingwood Children's Farm Apiary,18 St Heliers St Abbotsford VIC 3067,Abbotsford,,4129,Other Specialised Food Retailing,
37,-37.8046,144.9998,Computershare Cafe,452-484 Johnston St Abbotsford VIC 3067,Abbotsford,,4511,Cafes and Restaurants,
38,-37.8030856,145.0037161,Convent Bakery,1 St Heliers St Abbotsford VIC 3067,Abbotsford,,1174,Bakery Product Manufacturing (Non-factory based),
39,-37.8072913,144.9931365,Damm Fine Food,31-37 Russell St Abbotsford VIC 3067,Abbotsford,,4513,Catering Services,
40,-37.8096896,144.9926059,Dana Pani Indian Restaurant,395-397 Victoria St Abbotsford VIC 3067,Abbotsford,,4511,Cafes and Restaurants,
41,-37.8106403,145.0049177,Delicious Traditional,551 Victoria St Abbotsford VIC 3067,Abbotsford,,4512,Takeaway Food Services,
42,-37.8086792,145.0067071,Dench Bakers,17 Grosvenor St Abbotsford VIC 3067,Abbotsford,,1174,Bakery Product Manufacturing (Non-factory based),
43,-37.7999341,144.9939445,Dr Morse,274 Johnston St Abbotsford VIC 3067,Abbotsford,,4511,Cafes and Restaurants,
44,-37.8057117,144.9968926,Ed Dixon Food Design,102 Nicholson St Abbotsford VIC 3067,Abbotsford,,4513,Catering Services,
45,-37.797041,144.9941336,Eighteen Thousand,1 Abbot Gr Abbotsford VIC 3067,Abbotsford,,3601,General Line Grocery Wholesaling,
46,-37.8046,144.9998,Euro Garages Australia,276-286 Johnston St Abbotsford VIC 3067,Abbotsford,,4110,Supermarket and Grocery Stores,
47,-37.8086738,145.0074977,Explorers Early Learning - Flockhart Street,3 Flockhart St Abbotsford VIC 3067,Abbotsford,,8710,Child Care Services,
48,-37.8106304,145.0022218,FOF Rotary Hotpot,481 Victoria St Abbotsford VIC 3067,Abbotsford,,4511,Cafes and Restaurants,
49,-37.8095022,145.004336,FareShare,1-7 South Audley St Abbotsford VIC 3067,Abbotsford,,1174,Bakery Product Manufacturing (Non-factory based),
50,-37.8096896,144.9926059,First Choice Liquor Superstore,601 Victoria St Abbotsford VIC 3067,Abbotsford,,4129,Other Specialised Food Retailing,
51,-37.8046,144.9998,Four Larks Cafe,4/661-663 Victoria St Abbotsford VIC 3067,Abbotsford,,4511,Cafes and Restaurants,
52,-37.8116332,145.0136876,Frankie Says,15 Acacia Pl Abbotsford VIC 3067,Abbotsford,,4511,Cafes and Restaurants,
53,-37.797041,144.9941336,Friend + Burrell,1 Abbot Gr Abbotsford VIC 3067,Abbotsford,,3601,General Line Grocery Wholesaling,
54,-37.8096896,144.9926059,Gongcha,323-325 Victoria St Abbotsford VIC 3067,Abbotsford,,4511,Cafes and Restaurants,
55,-37.8096896,144.9926059,Green Square IGA Plus Liquor,609-615 Victoria St Abbotsford VIC 3067,Abbotsford,,4110,Supermarket and Grocery Stores,
56,-37.8096896,144.9926059,H2A Wholesale and Retail,363B Victoria St Abbotsford VIC 3067,Abbotsford,,4129,Other Specialised Food Retailing,
57,-37.8096896,144.9926059,Ha 2,381 Victoria St Abbotsford VIC 3067,Abbotsford,,4129,Other Specialised Food Retailing,
58,-37.8072913,144.9931365,Harvest Box Pty Ltd,17 Russell St Abbotsford VIC 3067,Abbotsford,,4129,Other Specialised Food Retailing,
59,-37.797041,144.9941336,Henrietta Morgan,1 Abbot Gr Abbotsford VIC 3067,Abbotsford,,3601,General Line Grocery Wholesaling,
60,-37.8092358,145.0059225,Hudsons Famous,36 Duke St Abbotsford VIC 3067,Abbotsford,,4513,Catering Services,
61,-37.7999747,144.9957652,IGA Abbotsford,306-310 Johnston St Abbotsford VIC 3067,Abbotsford,,4110,Supermarket and Grocery Stores,
62,-37.8093898,144.9914891,Jasper Coffee,3/264 Hoddle St Abbotsford VIC 3067,Abbotsford,,1140,Fruit and Vegetable Processing,
63,-37.8093417,144.9923949,Jinda Thai Restaurant,1-5 Ferguson St Abbotsford VIC 3067,Abbotsford,,4511,Cafes and Restaurants,
64,-37.8030856,145.0037161,Kappaya Japanese Soul Food Cafe,1 St Heliers St Abbotsford VIC 3067,Abbotsford,,4511,Cafes and Restaurants,
65,-37.8002357,144.995529,Kelso's Sandwich Shoppe,271 Johnston St Abbotsford VIC 3067,Abbotsford,,4511,Cafes and Restaurants,
66,-37.797041,144.9941336,Kennards Self Storage,1 Abbot Gr Abbotsford VIC 3067,Abbotsford,,3601,General Line Grocery Wholesaling,
67,-37.8116332,145.0136876,Kitty Burns,24 Acacia Pl Abbotsford VIC 3067,Abbotsford,,4511,Cafes and Restaurants,
68,-37.8052251,144.9930175,Laird Hotel,149 Gipps St Abbotsford VIC 3067,Abbotsford,,4520,"Pubs, Taverns and Bars",
69,-37.8030856,145.0037161,Lentil as Anything,1 St Heliers St Abbotsford VIC 3067,Abbotsford,,4511,Cafes and Restaurants,
70,-37.8091582,145.005935,Little Bertha,44 Duke St Abbotsford VIC 3067,Abbotsford,,1174,Bakery Product Manufacturing (Non-factory based),
71,-37.8019512,145.0006346,Little Sophia Rudolf Steiner Kindergarten Inc.,35-37 Abbotsford St Abbotsford VIC 3067,Abbotsford,,8710,Child Care Services,
72,-37.8029669,144.9971376,Loosie Grind,135 Nicholson St Abbotsford VIC 3067,Abbotsford,,4512,Takeaway Food Services,
73,-37.8046,144.9998,Lulie St Tavern,225A-225 Johnston St Abbotsford VIC 3067,Abbotsford,,4520,"Pubs, Taverns and Bars",
74,-37.8012786,144.9975835,Magpie Deli,212 Nicholson St Abbotsford VIC 3067,Abbotsford,,4512,Takeaway Food Services,
75,-37.8030058,144.997007,Mavis the Grocer,197 Vere St Abbotsford VIC 3067,Abbotsford,,4511,Cafes and Restaurants,
76,-37.8096896,144.9926059,McCoppins Abbotsford,501-509 Victoria St Abbotsford VIC 3067,Abbotsford,,4129,Other Specialised Food Retailing,
77,-37.8093898,144.9914891,McDonalds Family Restaurant #1205,28-40 Hoddle St Abbotsford VIC 3067,Abbotsford,,4511,Cafes and Restaurants,
78,-37.802619,145.0018079,Mercy Place Abbotsford,2-10 Clarke St Abbotsford VIC 3067,Abbotsford,,8601,Aged Care Residential Services,
79,-37.8002371,144.9951513,Mesa Greek Cuisine,265 Johnston St Abbotsford VIC 3067,Abbotsford,,4511,Cafes and Restaurants,
80,-37.8096896,144.9926059,Mighty Bear,285A Victoria St Abbotsford VIC 3067,Abbotsford,,4511,Cafes and Restaurants,
81,-37.8095858,144.9963729,Minh Phat Grocery,2-8 Nicholson St Abbotsford VIC 3067,Abbotsford,,4122,Fruit and Vegetable Retailing,
82,-37.8099068,145.0054449,Moon Dog Brewing,17 Duke St Abbotsford VIC 3067,Abbotsford,,1140,Fruit and Vegetable Processing,
83,-37.8099068,145.0054449,Moon Dog Brewing,17 Duke St Abbotsford VIC 3067,Abbotsford,,4511,Cafes and Restaurants,
84,-37.8069141,144.998466,Mothership Cafe,6/71 Victoria Cres Abbotsford VIC 3067,Abbotsford,,4511,Cafes and Restaurants,
85,-37.8024481,144.9928419,Mr Boogie Man Bar,160 Hoddle St Abbotsford VIC 3067,Abbotsford,,4520,"Pubs, Taverns and Bars",
86,-37.7999341,144.9939445,"Native Home, House of Plant",366 Johnston St Abbotsford VIC 3067,Abbotsford,,4520,"Pubs, Taverns and Bars",
87,-37.8096896,144.9926059,On It Burgers,349-351 Victoria St Abbotsford VIC 3067,Abbotsford,,4511,Cafes and Restaurants,
88,-37.8096896,144.9926059,One Yada Café,239 Victoria St Abbotsford VIC 3067,Abbotsford,,4511,Cafes and Restaurants,
89,-37.8096896,144.9926059,Orientable,401A Victoria St Abbotsford VIC 3067,Abbotsford,,4511,Cafes and Restaurants,
90,-37.8028287,144.997036,Park Hotel,212 Vere St Abbotsford VIC 3067,Abbotsford,,4511,Cafes and Restaurants,
91,-37.8046,144.9998,Patty Smiths,13/661-663 Victoria St Abbotsford VIC 3067,Abbotsford,,4511,Cafes and Restaurants,
92,-37.8116332,145.0136876,Pink Chilli,807/4 Acacia Pl Abbotsford VIC 3067,Abbotsford,,4129,Other Specialised Food Retailing,
93,-37.8052374,144.9940645,Red Bird Cafe,161 Gipps St Abbotsford VIC 3067,Abbotsford,,4511,Cafes and Restaurants,
94,-37.7999341,144.9939445,Rita's Cafeteria,239-241 Johnston St Abbotsford VIC 3067,Abbotsford,,4511,Cafes and Restaurants,
95,-37.7999341,144.9939445,Rita's Cafeteria,227 Johnston St Abbotsford VIC 3067,Abbotsford,,4512,Takeaway Food Services,
96,-37.8096896,144.9926059,Rouleur Espresso,511 Victoria St Abbotsford VIC 3067,Abbotsford,,4511,Cafes and Restaurants,
97,-37.8046,144.9998,Saigon Village Fresh Food Centre,11/313 Victoria St Abbotsford VIC 3067,Abbotsford,,4122,Fruit and Vegetable Retailing,
98,-37.803778,144.993515,Senior Citizens Centre,4 Eddy Ct Abbotsford VIC 3067,Abbotsford,,8601,Aged Care Residential Services,
99,-37.8096896,144.9926059,Seoul Soul Richmond,323-325 Victoria St Abbotsford VIC 3067,Abbotsford,,4511,Cafes and Restaurants,
100,-37.809884,144.995093,Shizuku,309 Victoria St Abbotsford VIC 3067,Abbotsford,,4511,Cafes and Restaurants,
101,-37.8007699,144.9961824,Simkiss Creations,70 Stafford St Abbotsford VIC 3067,Abbotsford,,4129,Other Specialised Food Retailing,
102,-37.8096896,144.9926059,Singa Pura,409 Victoria St Abbotsford VIC 3067,Abbotsford,,4511,Cafes and Restaurants,
103,-37.8030856,145.0037161,Sophia Mundi Steiner School,1 St Heliers St Abbotsford VIC 3067,Abbotsford,,4511,Cafes and Restaurants,
104,-37.8030856,145.0037161,St Heliers Community Store,1 St Heliers St Abbotsford VIC 3067,Abbotsford,,4511,Cafes and Restaurants,
105,-37.8093417,144.9923949,Talad Thai,1-5 Ferguson St Abbotsford VIC 3067,Abbotsford,,4110,Supermarket and Grocery Stores,
106,-37.8056011,144.9932344,Tea Tonic,43-45 Russell St Abbotsford VIC 3067,Abbotsford,,1140,Fruit and Vegetable Processing,
107,-37.8096896,144.9926059,Terminus Hotel,605 Victoria St Abbotsford VIC 3067,Abbotsford,,4511,Cafes and Restaurants,
108,-37.8096896,144.9926059,Thaiger Rabbit,391 Victoria St Abbotsford VIC 3067,Abbotsford,,4511,Cafes and Restaurants,
109,-37.8073834,144.9941797,The Carringbush Hotel,226-228 Langridge St Abbotsford VIC 3067,Abbotsford,,4511,Cafes and Restaurants,
110,-37.8096896,144.9926059,The E Lounge,409A Victoria St Abbotsford VIC 3067,Abbotsford,,4511,Cafes and Restaurants,
111,-37.8013452,145.002485,The Early Learning Centre,40 Clarke St Abbotsford VIC 3067,Abbotsford,,4129,Other Specialised Food Retailing,
112,-37.8018626,145.0030113,The Farm Café,16 St Heliers St Abbotsford VIC 3067,Abbotsford,,4511,Cafes and Restaurants,
113,-37.805262,144.992356,The Happy Mexican,108 Hoddle St Abbotsford VIC 3067,Abbotsford,,4511,Cafes and Restaurants,
114,-37.8010822,144.9976991,The Retreat Hotel Abbotsford,226 Nicholson St Abbotsford VIC 3067,Abbotsford,,4511,Cafes and Restaurants,
115,-37.8096896,144.9926059,The Vic,279 Victoria St Abbotsford VIC 3067,Abbotsford,,4520,"Pubs, Taverns and Bars",
116,-37.8074923,144.9965293,Three Bags Full Cafe,58 Nicholson St Abbotsford VIC 3067,Abbotsford,,4511,Cafes and Restaurants,
117,-37.8096896,144.9926059,Tien Loi Pool Hall,441 Victoria St Abbotsford VIC 3067,Abbotsford,,4520,"Pubs, Taverns and Bars",
118,-37.809608,144.992161,Tom Toon Thai Noodle Café,241 Victoria St Abbotsford VIC 3067,Abbotsford,,4511,Cafes and Restaurants,
119,-37.7999341,144.9939445,Trenerry Cafe,436-438 Johnston St Abbotsford VIC 3067,Abbotsford,,4511,Cafes and Restaurants,
120,-37.8096896,144.9926059,Two Hands Bar,311A Victoria St Abbotsford VIC 3067,Abbotsford,,4511,Cafes and Restaurants,
121,-37.8096896,144.9926059,Victoria Street Cellars,275 Victoria St Abbotsford VIC 3067,Abbotsford,,4129,Other Specialised Food Retailing,
122,-37.8096896,144.9926059,Vinh Vinh Restaurant,387 Victoria St Abbotsford VIC 3067,Abbotsford,,4511,Cafes and Restaurants,
123,-37.8096896,144.9926059,Volume 2,385 Victoria St Abbotsford VIC 3067,Abbotsford,,4511,Cafes and Restaurants,
124,-37.803778,144.993515,Willowview Day Centre,6 Eddy Ct Abbotsford VIC 3067,Abbotsford,,8601,Aged Care Residential Services,
125,-37.8096896,144.9926059,Woolworths Abbotsford,313-321 Victoria St Abbotsford VIC 3067,Abbotsford,,4110,Supermarket and Grocery Stores,
126,-37.7999341,144.9939445,Yarra Hotel,293-297 Johnston St Abbotsford VIC 3067,Abbotsford,,4511,Cafes and Restaurants,
127,-37.8093898,144.9914891,Yorkshire Stingo Hotel,44-48 Hoddle St Abbotsford VIC 3067,Abbotsford,,4511,Cafes and Restaurants,
128,-37.8096896,144.9926059,Yuri Sushi House Abbotsford,12/313 Victoria St Abbotsford VIC 3067,Abbotsford,,4511,Cafes and Restaurants,
129,-37.7829,145.0226,Alphington Aged Care,9-11 Old Heidelberg Rd Alphington VIC 3078,Alphington,,8601,Aged Care Residential Services,
130,-37.7841929,145.0289989,Alphington Bowls Club,Parkview Rd Alphington VIC 3078,Alphington,,4530,Clubs (Hospitality),
131,-37.7841929,145.0289989,Alphington Football Club,Parkview Rd Alphington VIC 3078,Alphington,,4530,Clubs (Hospitality),
132,-37.7816187,145.0320733,Alphington Primary School,26 Yarralea St Alphington VIC 3078,Alphington,,4511,Cafes and Restaurants,
133,-37.7816187,145.0320733,Alphington Primary School OSHCLUB,26 Yarralea St Alphington VIC 3078,Alphington,,4511,Cafes and Restaurants,
134,-37.7832356,145.0334394,Arnica Lodge,12-14 Como St Alphington VIC 3078,Alphington,,8609,Other Residential Care Services,
135,-37.7788463,145.0359919,Benjamin's Kitchen,758 Heidelberg Rd Alphington VIC 3078,Alphington,,4511,Cafes and Restaurants,
136,-37.7829,145.0226,Bluebird Catering @ Alphington Grammar School,12-18 Old Heidelberg Rd Alphington VIC 3078,Alphington,,4511,Cafes and Restaurants,
137,-37.7832356,145.0334394,Gum Nut Pre School and Child Care,1 Como St Alphington VIC 3078,Alphington,,8710,Child Care Services,
138,-37.782788,145.0335084,Jam By Fiona,2 St Bernards Rd Alphington VIC 3078,Alphington,,4129,Other Specialised Food Retailing,
139,-37.7788463,145.0359919,Kissaten Alphington,538-540 Heidelberg Rd Alphington VIC 3078,Alphington,,4511,Cafes and Restaurants,
140,-37.7831049,145.036408,Latrobe Golf Club,Farm Rd Alphington VIC 3078,Alphington,,4511,Cafes and Restaurants,
141,-37.7841929,145.0289989,Northcote United Cricket Club,Parkview Rd Alphington VIC 3078,Alphington,,4530,Clubs (Hospitality),
142,-37.7788463,145.0359919,Red Rooster,800 Heidelberg Rd Alphington VIC 3078,Alphington,,4512,Takeaway Food Services,
143,-37.7838778,145.0241787,Swiss Made,33/23 Coate Ave Alphington VIC 3078,Alphington,,4129,Other Specialised Food Retailing,
144,-37.7860485,145.0322161,Van di Vino,2/2 Riverbrae Ct Alphington VIC 3078,Alphington,,3601,General Line Grocery Wholesaling,
145,-37.8303628,145.0207791,Alemannia Richmond Soccer Club,6 F R Smith Dr Burnley VIC 3121,Burnley,,4530,Clubs (Hospitality),
146,-37.8303628,145.0207791,Burnley C.Y.M.S. Cricket Club,4 F R Smith Dr Burnley VIC 3121,Burnley,,4530,Clubs (Hospitality),
147,-37.8281911,145.0128166,Burnley Golf Course Kiosk,12 Loyola Gr Burnley VIC 3121,Burnley,,4512,Takeaway Food Services,
148,-37.8303628,145.0207791,Collingwood City Soccer,4 F R Smith Dr Burnley VIC 3121,Burnley,,4530,Clubs (Hospitality),
149,-37.8267872,145.0191947,Convenience @Botanicca,3/574 Swan St Burnley VIC 3121,Burnley,,4129,Other Specialised Food Retailing,
150,-37.8269256,145.0197657,David Jones Botanicca – Food (Building 1 & 2),572 Swan St Burnley VIC 3121,Burnley,,4110,Supermarket and Grocery Stores,
151,-37.8267872,145.0191947,Element Melbourne Richmond,588 Swan St Burnley VIC 3121,Burnley,,4511,Cafes and Restaurants,
152,-37.8305842,145.0146585,Richmond Central Amateur Football Club,Yarra Bvd Burnley VIC 3121,Burnley,,4530,Clubs (Hospitality),
153,-37.8303628,145.0207791,Richmond City Cricket Club,2 F R Smith Dr Burnley VIC 3121,Burnley,,4530,Clubs (Hospitality),
154,-37.8269256,145.0197657,Roma Botannica Cafe & Juice Bar,570-572 Swan St Burnley VIC 3121,Burnley,,4511,Cafes and Restaurants,
155,-37.8278541,145.0151568,Serotonin,52 Madden Gr Burnley VIC 3121,Burnley,,4511,Cafes and Restaurants,
156,-37.8269256,145.0197657,Shuji Sushi Botanicca,572 Swan St Burnley VIC 3121,Burnley,,4511,Cafes and Restaurants,
157,-37.8267382,145.020379,Street Kitchen Co.,582 Swan St Burnley VIC 3121,Burnley,,4511,Cafes and Restaurants,
158,-37.8271,145.0064,The Common Cafe & Bar & Birdie,576-588 Swan St Burnley VIC 3121,Burnley,,4511,Cafes and Restaurants,
159,-37.8286172,145.0067402,The Dessert Parlour,435 Burnley St Burnley VIC 3121,Burnley,,1174,Bakery Product Manufacturing (Non-factory based),
160,-37.8269256,145.0197657,The Shed,570-572 Swan St Burnley VIC 3121,Burnley,,4511,Cafes and Restaurants,
161,-37.7908137,144.9760716,A Fan's Notes,787 Nicholson St Carlton North VIC 3054,Carlton North,,4511,Cafes and Restaurants,
162,-37.7908137,144.9760716,A Treat of France,765 Nicholson St Carlton North VIC 3054,Carlton North,,1174,Bakery Product Manufacturing (Non-factory based),
163,-37.7908137,144.9760716,Afro Hub,727 Nicholson St Carlton North VIC 3054,Carlton North,,4511,Cafes and Restaurants,
164,-37.7908137,144.9760716,Angelo Pasticceria,757 Nicholson St Carlton North VIC 3054,Carlton North,,1174,Bakery Product Manufacturing (Non-factory based),
165,-37.787827,144.9690883,Art Stems on Lygon,1018 Lygon St Carlton North VIC 3054,Carlton North,,4129,Other Specialised Food Retailing,
166,-37.7908137,144.9760716,Babajan,713 Nicholson St Carlton North VIC 3054,Carlton North,,4511,Cafes and Restaurants,
167,-37.7908137,144.9760716,Bar Fred,797 Nicholson St Carlton North VIC 3054,Carlton North,,4511,Cafes and Restaurants,
168,-37.7911566,144.9710794,Big Childcare - Carlton North Primary School OSHC,60 Lee St Carlton North VIC 3054,Carlton North,,4511,Cafes and Restaurants,
169,-37.792518,144.971424,Biscotteria,288 Rathdowne St Carlton North VIC 3054,Carlton North,,4511,Cafes and Restaurants,
170,-37.7911566,144.9710794,Brandon Hotel,18-20 Lee St Carlton North VIC 3054,Carlton North,,4511,Cafes and Restaurants,
171,-37.7912151,144.9739257,Cafe Bu,585 Canning St Carlton North VIC 3054,Carlton North,,4511,Cafes and Restaurants,
172,-37.7908137,144.9760716,Cafe Milato,707 Nicholson St Carlton North VIC 3054,Carlton North,,4511,Cafes and Restaurants,
173,-37.787827,144.9690883,Caffe Shed on Lygon,1020 Lygon St Carlton North VIC 3054,Carlton North,,4512,Takeaway Food Services,
174,-37.7912151,144.9739257,Carlton Cellars,510 Canning St Carlton North VIC 3054,Carlton North,,4129,Other Specialised Food Retailing,
175,-37.7908137,144.9760716,Cherry Lane Fine Foods,375 Nicholson St Carlton North VIC 3054,Carlton North,,1140,Fruit and Vegetable Processing,
176,-37.7908137,144.9760716,Chichora Indian Restaurant and Bar,749 Nicholson St Carlton North VIC 3054,Carlton North,,4511,Cafes and Restaurants,
177,-37.792518,144.971424,Chin Chin's at Koto Moon,647 Rathdowne St Carlton North VIC 3054,Carlton North,,4511,Cafes and Restaurants,
178,-37.792518,144.971424,Clay Health & Organics,719 Rathdowne St Carlton North VIC 3054,Carlton North,,4110,Supermarket and Grocery Stores,
179,-37.7908137,144.9760716,Colonial Wines,691 Nicholson St Carlton North VIC 3054,Carlton North,,4129,Other Specialised Food Retailing,
180,-37.787827,144.9690883,Enoteca Sileno,920-928 Lygon St Carlton North VIC 3054,Carlton North,,4511,Cafes and Restaurants,
181,-37.7863928,144.9696438,Eolian Hall,836-842 Lygon St Carlton North VIC 3054,Carlton North,,4530,Clubs (Hospitality),
182,-37.7874325,144.9694563,Filou's Patisserie,187 Fenwick St Carlton North VIC 3054,Carlton North,,1174,Bakery Product Manufacturing (Non-factory based),
183,-37.792518,144.971424,Fledgling Espresso,412 Rathdowne St Carlton North VIC 3054,Carlton North,,4511,Cafes and Restaurants,
184,-37.792518,144.971424,Geralds Bar,386 Rathdowne St Carlton North VIC 3054,Carlton North,,4511,Cafes and Restaurants,
185,-37.792518,144.971424,Giro D' Italia,651 Rathdowne St Carlton North VIC 3054,Carlton North,,4511,Cafes and Restaurants,
186,-37.7889872,144.9760904,Handlewell Supermarket,799 Nicholson St Carlton North VIC 3054,Carlton North,,4110,Supermarket and Grocery Stores,
187,-37.7908137,144.9760716,Happy Inn Restaurant,723 Nicholson St Carlton North VIC 3054,Carlton North,,4511,Cafes and Restaurants,
188,-37.792518,144.971424,Henry Sugar,296-298 Rathdowne St Carlton North VIC 3054,Carlton North,,4511,Cafes and Restaurants,
189,-37.7908137,144.9760716,Holy Crumpets,645 Nicholson St Carlton North VIC 3054,Carlton North,,1140,Fruit and Vegetable Processing,
190,-37.7908137,144.9760716,I Absolute Thai Restaurant & Cafe,651 Nicholson St Carlton North VIC 3054,Carlton North,,4511,Cafes and Restaurants,
191,-37.7908137,144.9760716,Il Carretto,477-479 Nicholson St Carlton North VIC 3054,Carlton North,,4511,Cafes and Restaurants,
192,-37.7886972,144.9722724,Kent Hotel,370 Rathdowne St Carlton North VIC 3054,Carlton North,,4511,Cafes and Restaurants,
193,-37.792518,144.971424,Khabbay,645 Rathdowne St Carlton North VIC 3054,Carlton North,,4511,Cafes and Restaurants,
194,-37.792518,144.971424,Kylie's Slow Dough,649 Rathdowne St Carlton North VIC 3054,Carlton North,,1174,Bakery Product Manufacturing (Non-factory based),
195,-37.7910853,144.9718262,La Luna Bistro,320 Rathdowne St Carlton North VIC 3054,Carlton North,,4511,Cafes and Restaurants,
196,-37.792518,144.971424,La Porchetta Carlton,388-394 Rathdowne St Carlton North VIC 3054,Carlton North,,4511,Cafes and Restaurants,
197,-37.7908137,144.9760716,Little Andora,555 Nicholson St Carlton North VIC 3054,Carlton North,,4511,Cafes and Restaurants,
198,-37.792518,144.971424,Lucky's Pizzeria,923 Rathdowne St Carlton North VIC 3054,Carlton North,,4511,Cafes and Restaurants,
199,-37.780754,144.977796,Maria's Coffee House & Deli,793 Nicholson St Carlton North VIC 3054,Carlton North,,4511,Cafes and Restaurants,
200,-37.7866,144.9685,Maria's Pasta,667-679 Nicholson St Carlton North VIC 3054,Carlton North,,4129,Other Specialised Food Retailing,
201,-37.7845674,144.9739222,Mary & Steve,267 Amess St Carlton North VIC 3054,Carlton North,,4513,Catering Services,
202,-37.7845674,144.9739222,Mary & Steve,261 Amess St Carlton North VIC 3054,Carlton North,,4513,Catering Services,
203,-37.792518,144.971424,Masons,344 Rathdowne St Carlton North VIC 3054,Carlton North,,4511,Cafes and Restaurants,
204,-37.787827,144.9690883,Mr Franklin,1024-1034 Lygon St Carlton North VIC 3054,Carlton North,,4511,Cafes and Restaurants,
205,-37.7908137,144.9760716,Natural Tucker Bakery,807-811 Nicholson St Carlton North VIC 3054,Carlton North,,1174,Bakery Product Manufacturing (Non-factory based),
206,-37.7879928,144.9705413,No name - Home Delivery Service,1031 Drummond St Carlton North VIC 3054,Carlton North,,4129,Other Specialised Food Retailing,
207,-37.792518,144.971424,North Cafeteria,717 Rathdowne St Carlton North VIC 3054,Carlton North,,4511,Cafes and Restaurants,
208,-37.7908137,144.9760716,North Carlton Authorised Newsagency,711 Nicholson St Carlton North VIC 3054,Carlton North,,4129,Other Specialised Food Retailing,
209,-37.787827,144.9690883,North Carlton Canteen,1008 Lygon St Carlton North VIC 3054,Carlton North,,4511,Cafes and Restaurants,
210,-37.7912151,144.9739257,North Carlton Children's Centre,481 Canning St Carlton North VIC 3054,Carlton North,,8710,Child Care Services,
211,-37.792518,144.971424,Rathdowne Cellars,348-350 Rathdowne St Carlton North VIC 3054,Carlton North,,4129,Other Specialised Food Retailing,
212,-37.792518,144.971424,Rathdowne Convenience & Liquor,278-280 Rathdowne St Carlton North VIC 3054,Carlton North,,4110,Supermarket and Grocery Stores,
213,-37.7878365,144.9724224,Rathdowne Newsagency,410 Rathdowne St Carlton North VIC 3054,Carlton North,,4129,Other Specialised Food Retailing,
214,-37.792518,144.971424,Rathdowne St Cafe,619 Rathdowne St Carlton North VIC 3054,Carlton North,,4511,Cafes and Restaurants,
215,-37.792518,144.971424,Rathdowne Village Delicatessen,378 Rathdowne St Carlton North VIC 3054,Carlton North,,4511,Cafes and Restaurants,
216,-37.7886229,144.9722798,Rathdowne Village Grocery Store,374 Rathdowne St Carlton North VIC 3054,Carlton North,,4512,Takeaway Food Services,
217,-37.7908137,144.9760716,San Remo Ballroom,365 Nicholson St Carlton North VIC 3054,Carlton North,,4511,Cafes and Restaurants,
218,-37.792518,144.971424,Senserrick Green Grocer,384 Rathdowne St Carlton North VIC 3054,Carlton North,,4122,Fruit and Vegetable Retailing,
219,-37.7908137,144.9760716,Senserrick Green Grocer,687 Nicholson St Carlton North VIC 3054,Carlton North,,4110,Supermarket and Grocery Stores,
220,-37.7908137,144.9760716,Sibling by Kinfolk,611 Nicholson St Carlton North VIC 3054,Carlton North,,4511,Cafes and Restaurants,
221,-37.792518,144.971424,Skinner & Hackett,400 Rathdowne St Carlton North VIC 3054,Carlton North,,4511,Cafes and Restaurants,
222,-37.792518,144.971424,Small Victories Restaurant and Bar,617 Rathdowne St Carlton North VIC 3054,Carlton North,,4511,Cafes and Restaurants,
223,-37.792518,144.971424,Spencer & Co Wine Bar Provedore,639 Rathdowne St Carlton North VIC 3054,Carlton North,,4511,Cafes and Restaurants,
224,-37.792518,144.971424,The Great Northern Hotel,644-646 Rathdowne St Carlton North VIC 3054,Carlton North,,4511,Cafes and Restaurants,
225,-37.7893791,144.9689051,The Lady Gowrie Child Centre,36 Newry St Carlton North VIC 3054,Carlton North,,8710,Child Care Services,
226,-37.7884609,144.972297,The Seafood Place Carlton North,382 Rathdowne St Carlton North VIC 3054,Carlton North,,4512,Takeaway Food Services,
227,-37.7875714,144.9765197,The Thai Classic,507 Nicholson St Carlton North VIC 3054,Carlton North,,4511,Cafes and Restaurants,
228,-37.792698,144.9739592,The Wine Corner,50 Princes St Carlton North VIC 3054,Carlton North,,4520,"Pubs, Taverns and Bars",
229,-37.792518,144.971424,Tre Bicchieri,623 Rathdowne St Carlton North VIC 3054,Carlton North,,4511,Cafes and Restaurants,
230,-37.792518,144.971424,Wetherspoon,693 Rathdowne St Carlton North VIC 3054,Carlton North,,4511,Cafes and Restaurants,
231,-37.792518,144.971424,Yumbo's,396 Rathdowne St Carlton North VIC 3054,Carlton North,,4511,Cafes and Restaurants,
232,-37.7908137,144.9760716,Zafeera's Fine Malaysian Indian Cuisine,563 Nicholson St Carlton North VIC 3054,Carlton North,,4511,Cafes and Restaurants,
233,-37.7956096,144.9936556,7-Eleven Store #1262B,422-424 Hoddle St Clifton Hill VIC 3068,Clifton Hill,,4110,Supermarket and Grocery Stores,
234,-37.7919664,144.9903399,Camp Australia - Clifton Hill Primary School OSHC,2-10 Page St Clifton Hill VIC 3068,Clifton Hill,,4511,Cafes and Restaurants,
235,-37.7956096,144.9936556,Chien Wah Manufacturing,408 Hoddle St Clifton Hill VIC 3068,Clifton Hill,,1140,Fruit and Vegetable Processing,
236,-37.7956096,144.9936556,Chien Wah Trading Co Pty Ltd,408 Hoddle St Clifton Hill VIC 3068,Clifton Hill,,3601,General Line Grocery Wholesaling,
237,-37.7918688,145.0025438,Clifton Hill Cricket Club Ramsden St. Reserve,1 Field St Clifton Hill VIC 3068,Clifton Hill,,4530,Clubs (Hospitality),
238,-37.7907373,144.9988845,Clifton Hill Football Club,Ramsden St Clifton Hill VIC 3068,Clifton Hill,,4530,Clubs (Hospitality),
239,-37.7908556,144.9856664,Clifton Hill Hardware Pty Ltd,15-33 Queens Pde Clifton Hill VIC 3068,Clifton Hill,,4129,Other Specialised Food Retailing,
240,-37.789742,144.989118,Clifton Hill Hotel,89 Queens Pde Clifton Hill VIC 3068,Clifton Hill,,4511,Cafes and Restaurants,
241,-37.7877526,144.9934468,Clifton Hill Kiosk,1 Heidelberg Rd Clifton Hill VIC 3068,Clifton Hill,,4511,Cafes and Restaurants,
242,-37.7908556,144.9856664,Clifton Hill Post Officer,181 Queens Pde Clifton Hill VIC 3068,Clifton Hill,,4129,Other Specialised Food Retailing,
243,-37.7925474,144.9893528,Clifton Hill Primary School,185 Gold St Clifton Hill VIC 3068,Clifton Hill,,4511,Cafes and Restaurants,
244,-37.7865,144.9897,Collingwood Harriers Athletics,Reserves Heidelberg Rd Clifton Hill VIC 3068,Clifton Hill,,4530,Clubs (Hospitality),
245,-37.7888441,144.9932482,Collingwood Leisure Centre,2-12 Turnbull St Clifton Hill VIC 3068,Clifton Hill,,4129,Other Specialised Food Retailing,
246,-37.788875,144.991147,Diamond Indian and Hungarian Cuisine,149 Queens Pde Clifton Hill VIC 3068,Clifton Hill,,4511,Cafes and Restaurants,
247,-37.790641,144.997134,Dirty Apron,47 Ramsden St Clifton Hill VIC 3068,Clifton Hill,,4511,Cafes and Restaurants,
248,-37.7870053,145.0025339,Everyday Mixed Business,111 Spensley St Clifton Hill VIC 3068,Clifton Hill,,4110,Supermarket and Grocery Stores,
249,-37.7907373,144.9988845,Fitzroy Junior Football Club,Ramsden St Clifton Hill VIC 3068,Clifton Hill,,4530,Clubs (Hospitality),
250,-37.7880462,144.9993308,Flower of Sorrento,58 Spensley St Clifton Hill VIC 3068,Clifton Hill,,4110,Supermarket and Grocery Stores,
251,-37.792658,144.995651,Gao Jin Hua Milk Bar and Take Away,48 Roseneath St Clifton Hill VIC 3068,Clifton Hill,,4512,Takeaway Food Services,
252,-37.7908743,144.9859366,Goldilocks Lunchbox,628-632 Smith St Clifton Hill VIC 3068,Clifton Hill,,4511,Cafes and Restaurants,
253,-37.7877526,144.9934468,Goodstart Early Learning Clifton Hill,101 Heidelberg Rd Clifton Hill VIC 3068,Clifton Hill,,8710,Child Care Services,
254,-37.7908556,144.9856664,Key Ingredients,1/171 Queens Pde Clifton Hill VIC 3068,Clifton Hill,,4129,Other Specialised Food Retailing,
255,-37.7907373,144.9988845,Kitchen After Dark,76 Ramsden St Clifton Hill VIC 3068,Clifton Hill,,4129,Other Specialised Food Retailing,
256,-37.7894261,144.9898139,Ma-Me Thai Secret,109 Queens Pde Clifton Hill VIC 3068,Clifton Hill,,4511,Cafes and Restaurants,
257,-37.7908556,144.9856664,Marigold Indian Restaurant,153-155 Queens Pde Clifton Hill VIC 3068,Clifton Hill,,4511,Cafes and Restaurants,
258,-37.7908556,144.9856664,Network Video,173-175 Queens Pde Clifton Hill VIC 3068,Clifton Hill,,4129,Other Specialised Food Retailing,
259,-37.7956096,144.9936556,Petit Early Learning Journey Clifton Hill,372-378 Hoddle St Clifton Hill VIC 3068,Clifton Hill,,8710,Child Care Services,
260,-37.7907373,144.9988845,Ramsden Local Store,53-55 Ramsden St Clifton Hill VIC 3068,Clifton Hill,,4511,Cafes and Restaurants,
261,-37.7870053,145.0025339,Royal Hotel,35-41 Spensley St Clifton Hill VIC 3068,Clifton Hill,,4511,Cafes and Restaurants,
262,-37.7908556,144.9856664,Rubber Duck,1A/139 Queens Pde Clifton Hill VIC 3068,Clifton Hill,,4511,Cafes and Restaurants,
263,-37.7921675,144.9922973,Sambell Lodge,1 South Tce Clifton Hill VIC 3068,Clifton Hill,,8601,Aged Care Residential Services,
264,-37.7956096,144.9936556,Schots Café,406 Hoddle St Clifton Hill VIC 3068,Clifton Hill,,4511,Cafes and Restaurants,
265,-37.7908556,144.9856664,Some Velvet Morning,123-125 Queens Pde Clifton Hill VIC 3068,Clifton Hill,,4520,"Pubs, Taverns and Bars",
266,-37.7870053,145.0025339,Spensley Street Primary School,193-203 Spensley St Clifton Hill VIC 3068,Clifton Hill,,4511,Cafes and Restaurants,
267,-37.7908743,144.9859366,Sweet Mickie,628-632 Smith St Clifton Hill VIC 3068,Clifton Hill,,1140,Fruit and Vegetable Processing,
268,-37.788798,144.991371,Tarantini Ristorante,157 Queens Pde Clifton Hill VIC 3068,Clifton Hill,,4511,Cafes and Restaurants,
269,-37.794259,144.998243,Uncle Drew,23 Groom St Clifton Hill VIC 3068,Clifton Hill,,4511,Cafes and Restaurants,
270,-37.7889075,144.9977516,What's Fishin Fish & Chippery,38 Berry St Clifton Hill VIC 3068,Clifton Hill,,4512,Takeaway Food Services,
271,-37.8006105,144.9841315,7-Eleven,286 Smith St Collingwood VIC 3066,Collingwood,,4110,Supermarket and Grocery Stores,
272,-37.8037886,144.9918397,Abbotsford Post Office,9-12 Hood St Collingwood VIC 3066,Collingwood,,4129,Other Specialised Food Retailing,
273,-37.7988037,144.989939,Acoffee,30-32 Sackville St Collingwood VIC 3066,Collingwood,,4511,Cafes and Restaurants,
274,-37.805122,144.985607,Akasiro,106 Cambridge St Collingwood VIC 3066,Collingwood,,4511,Cafes and Restaurants,
275,-37.799768,144.984305,Albion Inn Hotel,314 Smith St Collingwood VIC 3066,Collingwood,,4520,"Pubs, Taverns and Bars",
276,-37.8055735,144.9833203,Alinga Organics,94 Smith St Collingwood VIC 3066,Collingwood,,4511,Cafes and Restaurants,
277,-37.8068758,144.9889895,Allpress Espresso,80-84 Rupert St Collingwood VIC 3066,Collingwood,,4511,Cafes and Restaurants,
278,-37.8067564,144.9877288,American Doughnut Kitchen,99-103 Langridge St Collingwood VIC 3066,Collingwood,,1140,Fruit and Vegetable Processing,
279,-37.7995613,144.9902262,Angel's Nest,210 Johnston St Collingwood VIC 3066,Collingwood,,4520,"Pubs, Taverns and Bars",
280,-37.7995063,144.9885652,Angelo Pizza e Cucina,115 Johnston St Collingwood VIC 3066,Collingwood,,4511,Cafes and Restaurants,
281,-37.8022594,144.9890119,Anhoa Take Away,39 Vere St Collingwood VIC 3066,Collingwood,,4511,Cafes and Restaurants,
282,-37.8069563,144.9899047,Arno Espresso,51 Cromwell St Collingwood VIC 3066,Collingwood,,4511,Cafes and Restaurants,
283,-37.8087695,144.9830963,Baden Powell Hotel,61-65 Victoria Pde Collingwood VIC 3066,Collingwood,,4511,Cafes and Restaurants,
284,-37.8087695,144.9830963,Banh Mi collingwood,141 Victoria Pde Collingwood VIC 3066,Collingwood,,4511,Cafes and Restaurants,
285,-37.805657,144.983308,Bar SK,90 Smith St Collingwood VIC 3066,Collingwood,,4520,"Pubs, Taverns and Bars",
286,-37.7995613,144.9902262,Barley Corn Hotel,177-181 Johnston St Collingwood VIC 3066,Collingwood,,4129,Other Specialised Food Retailing,
287,-37.800074,144.984243,Beermash,306 Smith St Collingwood VIC 3066,Collingwood,,4520,"Pubs, Taverns and Bars",
288,-37.8027967,144.9836144,Belly Q,354 Smith St Collingwood VIC 3066,Collingwood,,4511,Cafes and Restaurants,
289,-37.799174,144.9875214,Ben Wright,74 Johnston St Collingwood VIC 3066,Collingwood,,4129,Other Specialised Food Retailing,
290,-37.7995613,144.9902262,Bendigo Hotel,125-127 Johnston St Collingwood VIC 3066,Collingwood,,4511,Cafes and Restaurants,
291,-37.805758,144.983294,Biggie Smalls,86 Smith St Collingwood VIC 3066,Collingwood,,4511,Cafes and Restaurants,
292,-37.8069563,144.9899047,Black Truffle Catering / Michael Jacks Cat,130 Cromwell St Collingwood VIC 3066,Collingwood,,4513,Catering Services,
293,-37.7988037,144.989939,Botanical Cuisine,58-60 Sackville St Collingwood VIC 3066,Collingwood,,1140,Fruit and Vegetable Processing,
294,-37.8057,144.983301,Bowl Bowl Dumplings,88 Smith St Collingwood VIC 3066,Collingwood,,4511,Cafes and Restaurants,
295,-37.8055363,144.9833273,BowlBowl Dumpling Bar,96 Smith St Collingwood VIC 3066,Collingwood,,4511,Cafes and Restaurants,
296,-37.8,144.9833,Branch Events,5/174-176 Easey St Collingwood VIC 3066,Collingwood,,4513,Catering Services,
297,-37.79952,144.9887167,Brunches & Lunches Café,119 Johnston St Collingwood VIC 3066,Collingwood,,4511,Cafes and Restaurants,
298,-37.8087695,144.9830963,Bunnings Collingwood,179-201 Victoria Pde Collingwood VIC 3066,Collingwood,,4511,Cafes and Restaurants,
299,-37.7975526,144.9912375,CIBI,41-49 Keele St Collingwood VIC 3066,Collingwood,,4511,Cafes and Restaurants,
300,-37.7975526,144.9912375,CIBI,33-39 Keele St Collingwood VIC 3066,Collingwood,,4511,Cafes and Restaurants,
301,-37.8027967,144.9836144,Cafe on Smith,372 Smith St Collingwood VIC 3066,Collingwood,,4512,Takeaway Food Services,
302,-37.8073959,144.9869308,Cake Indulgence,26-30 Northumberland St Collingwood VIC 3066,Collingwood,,1174,Bakery Product Manufacturing (Non-factory based),
303,-37.8071202,144.9849538,Cambridge Café,45 Derby St Collingwood VIC 3066,Collingwood,,4511,Cafes and Restaurants,
304,-37.8052301,144.9854537,Cambridge House,3 Cambridge St Collingwood VIC 3066,Collingwood,,8601,Aged Care Residential Services,
305,-37.7980391,144.9862121,Casati Beer Co,25 Easey St Collingwood VIC 3066,Collingwood,,4511,Cafes and Restaurants,
306,-37.8059236,144.9832619,Caz Reitop's Dirty Secrets,80 Smith St Collingwood VIC 3066,Collingwood,,4520,"Pubs, Taverns and Bars",
307,-37.8027967,144.9836144,Chefbexie,444-452 Smith St Collingwood VIC 3066,Collingwood,,4513,Catering Services,
308,-37.796588,144.987641,Chotto Motto,287 Wellington St Collingwood VIC 3066,Collingwood,,4511,Cafes and Restaurants,
309,-37.8017937,144.9839113,Cignall,242 Smith St Collingwood VIC 3066,Collingwood,,4129,Other Specialised Food Retailing,
310,-37.7995613,144.9902262,Circus Oz,35 Johnston St Collingwood VIC 3066,Collingwood,,4520,"Pubs, Taverns and Bars",
311,-37.8051269,144.984554,Club 80,8-10 Peel St Collingwood VIC 3066,Collingwood,,4520,"Pubs, Taverns and Bars",
312,-37.8055363,144.9833273,Cocina Mexico,96 Smith St Collingwood VIC 3066,Collingwood,,4513,Catering Services,
313,-37.8027967,144.9836144,Coffee Plus Office,402 Smith St Collingwood VIC 3066,Collingwood,,4511,Cafes and Restaurants,
314,-37.8027967,144.9836144,Coles,170 Smith St Collingwood VIC 3066,Collingwood,,4110,Supermarket and Grocery Stores,
315,-37.7944323,144.9863306,Coles Express Collingwood,11-17 Alexandra Pde Collingwood VIC 3066,Collingwood,,4110,Supermarket and Grocery Stores,
316,-37.8069563,144.9899047,Collingwood College After School Care,157 Cromwell St Collingwood VIC 3066,Collingwood,,4511,Cafes and Restaurants,
317,-37.809117,144.98789,Collingwood Lunch Box,143 Victoria Pde Collingwood VIC 3066,Collingwood,,4512,Takeaway Food Services,
318,-37.7994887,144.9882379,Collingwood North LPO,101 Johnston St Collingwood VIC 3066,Collingwood,,4129,Other Specialised Food Retailing,
319,-37.7998326,144.9890814,Collingwood taxi Social Club,102 Dight St Collingwood VIC 3066,Collingwood,,4511,Cafes and Restaurants,
320,-37.8051269,144.984554,Congress,49 Peel St Collingwood VIC 3066,Collingwood,,4511,Cafes and Restaurants,
321,-37.7995613,144.9902262,Crispy Bacon,67-71 Johnston St Collingwood VIC 3066,Collingwood,,4512,Takeaway Food Services,
322,-37.8046411,144.9898731,Crossroads Cafe,70-76 Gipps St Collingwood VIC 3066,Collingwood,,4512,Takeaway Food Services,
323,-37.8027967,144.9836144,Crust Gourmet Pizza Bar Fitzroy,350 Smith St Collingwood VIC 3066,Collingwood,,4512,Takeaway Food Services,
324,-37.8036954,144.9872752,Cuisine Masters,22 Singleton St Collingwood VIC 3066,Collingwood,,4513,Catering Services,
325,-37.8,144.9833,Cultural Catering,11/253 Hoddle St Collingwood VIC 3066,Collingwood,,4513,Catering Services,
326,-37.8027967,144.9836144,Dan Murphy's,416-422 Smith St Collingwood VIC 3066,Collingwood,,4129,Other Specialised Food Retailing,
327,-37.8056488,144.9851408,Deliveroo Australia Pty Ltd,81-85 Cambridge St Collingwood VIC 3066,Collingwood,,4513,Catering Services,
328,-37.7999844,144.9842549,Dingos Bar,310 Smith St Collingwood VIC 3066,Collingwood,,4520,"Pubs, Taverns and Bars",
329,-37.799863,144.991925,Dog House Australia,195 Johnston St Collingwood VIC 3066,Collingwood,,4511,Cafes and Restaurants,
330,-37.8067851,144.9880745,Dos Diablos,36-38 Rokeby St Collingwood VIC 3066,Collingwood,,3601,General Line Grocery Wholesaling,
331,-37.801524,144.983958,Dumpling Dumpling,254 Smith St Collingwood VIC 3066,Collingwood,,4512,Takeaway Food Services,
332,-37.8056395,144.9867365,Earnest Bean Company,14 Robert St Collingwood VIC 3066,Collingwood,,1140,Fruit and Vegetable Processing,
333,-37.7980504,144.98932,Easey's,3/48 Easey St Collingwood VIC 3066,Collingwood,,4511,Cafes and Restaurants,
334,-37.8067564,144.9877288,Eddy's,124-130 Langridge St Collingwood VIC 3066,Collingwood,,4511,Cafes and Restaurants,
335,-37.8067851,144.9880745,Fabulous Catering,100-110 Rokeby St Collingwood VIC 3066,Collingwood,,4513,Catering Services,
336,-37.8013243,144.9839864,Falafel Place,264 Smith St Collingwood VIC 3066,Collingwood,,4511,Cafes and Restaurants,
337,-37.7994988,144.9885035,Fee Fee's Bar,113 Johnston St Collingwood VIC 3066,Collingwood,,4520,"Pubs, Taverns and Bars",
338,-37.8027967,144.9836144,Fixation Brewing Co,414 Smith St Collingwood VIC 3066,Collingwood,,4520,"Pubs, Taverns and Bars",
339,-37.8019032,144.9838892,Fonda Mexican,236 Smith St Collingwood VIC 3066,Collingwood,,4511,Cafes and Restaurants,
340,-37.7975526,144.9912375,Food Fuel Stop,65-69 Keele St Collingwood VIC 3066,Collingwood,,4110,Supermarket and Grocery Stores,
341,-37.7995613,144.9902262,Foodworks Collingwood,199-201 Johnston St Collingwood VIC 3066,Collingwood,,4110,Supermarket and Grocery Stores,
342,-37.8027967,144.9836144,Foresters Beer & Music Hall,64-68 Smith St Collingwood VIC 3066,Collingwood,,4511,Cafes and Restaurants,
343,-37.7999298,144.9842547,Friends of the Earth Food Co-Op,312 Smith St Collingwood VIC 3066,Collingwood,,4512,Takeaway Food Services,
344,-37.8027967,144.9836144,Furai-do,444-452 Smith St Collingwood VIC 3066,Collingwood,,1140,Fruit and Vegetable Processing,
345,-37.805401,144.98335,Gigi Falafel Bar,102 Smith St Collingwood VIC 3066,Collingwood,,4511,Cafes and Restaurants,
346,-37.8049156,144.9903259,Gipps Street Canteen,95 Gipps St Collingwood VIC 3066,Collingwood,,4512,Takeaway Food Services,
347,-37.8047135,144.9880206,Glassworks Café,23-25 Gipps St Collingwood VIC 3066,Collingwood,,4511,Cafes and Restaurants,
348,-37.7969292,144.9897732,Gold St Child Care Centre,64 Gold St Collingwood VIC 3066,Collingwood,,8710,Child Care Services,
349,-37.799293,144.984375,Golden Dollar Lotto,330 Smith St Collingwood VIC 3066,Collingwood,,4129,Other Specialised Food Retailing,
350,-37.8027967,144.9836144,Gontran Cherrier,140 Smith St Collingwood VIC 3066,Collingwood,,4511,Cafes and Restaurants,
351,-37.801195,144.9840011,Goon BBQ,270 Smith St Collingwood VIC 3066,Collingwood,,4511,Cafes and Restaurants,
352,-37.8027967,144.9836144,Grace Darling Hotel,114-116 Smith St Collingwood VIC 3066,Collingwood,,4511,Cafes and Restaurants,
353,-37.8027967,144.9836144,Greedy Bear Bistro,484 Smith St Collingwood VIC 3066,Collingwood,,4511,Cafes and Restaurants,
354,-37.8069563,144.9899047,Green Apron Catering,157 Cromwell St Collingwood VIC 3066,Collingwood,,4511,Cafes and Restaurants,
355,-37.801834,144.983903,Green Burger Pty Ltd,240 Smith St Collingwood VIC 3066,Collingwood,,4511,Cafes and Restaurants,
356,-37.802237,144.983876,Grill'd Smith Street,230 Smith St Collingwood VIC 3066,Collingwood,,4511,Cafes and Restaurants,
357,-37.8027967,144.9836144,H & M Coffee,388 Smith St Collingwood VIC 3066,Collingwood,,4511,Cafes and Restaurants,
358,-37.8021102,144.9888496,H R U Milk Bar,43-45 Vere St Collingwood VIC 3066,Collingwood,,4110,Supermarket and Grocery Stores,
359,-37.8056782,144.9836858,Halle Aux Vins,17-21 Little Oxford St Collingwood VIC 3066,Collingwood,,3601,General Line Grocery Wholesaling,
360,-37.800536,144.984154,Hippo Bottle and Bar,290 Smith St Collingwood VIC 3066,Collingwood,,4520,"Pubs, Taverns and Bars",
361,-37.8027967,144.9836144,Hotel Jesus,174 Smith St Collingwood VIC 3066,Collingwood,,4511,Cafes and Restaurants,
362,-37.8027967,144.9836144,Huxtaburger,104-106 Smith St Collingwood VIC 3066,Collingwood,,4511,Cafes and Restaurants,
363,-37.805621,144.983311,IDES Restaurant,92 Smith St Collingwood VIC 3066,Collingwood,,4511,Cafes and Restaurants,
364,-37.798987,144.9857828,Jim's Greek Tavern,32 Johnston St Collingwood VIC 3066,Collingwood,,4511,Cafes and Restaurants,
365,-37.7998047,144.987051,Just Bites,241 Wellington St Collingwood VIC 3066,Collingwood,,4511,Cafes and Restaurants,
366,-37.7980504,144.98932,Kaka Milk Bar,63 Gold St Collingwood VIC 3066,Collingwood,,4110,Supermarket and Grocery Stores,
367,-37.80461,144.983488,Keboo Kebabs,126 Smith St Collingwood VIC 3066,Collingwood,,4511,Cafes and Restaurants,
368,-37.797868,144.992708,Keele Street Children's Centre,177 Keele St Collingwood VIC 3066,Collingwood,,8710,Child Care Services,
369,-37.8052683,144.9833687,Koji & Co,108 Smith St Collingwood VIC 3066,Collingwood,,1140,Fruit and Vegetable Processing,
370,-37.799205,144.984395,Kosmopolitan,334 Smith St Collingwood VIC 3066,Collingwood,,4511,Cafes and Restaurants,
371,-37.7991698,144.9874731,Ladybird Café,72 Johnston St Collingwood VIC 3066,Collingwood,,4511,Cafes and Restaurants,
372,-37.8052197,144.9841619,Lazer Pig,9-11 Peel St Collingwood VIC 3066,Collingwood,,4511,Cafes and Restaurants,
373,-37.8047422,144.989711,Le Bon Ton,47-51 Gipps St Collingwood VIC 3066,Collingwood,,4511,Cafes and Restaurants,
374,-37.7964931,144.98981,Leinster Arms Hotel,66 Gold St Collingwood VIC 3066,Collingwood,,4511,Cafes and Restaurants,
375,-37.8067851,144.9880745,Lemon Middle and Orange,1/25 Rokeby St Collingwood VIC 3066,Collingwood,,4511,Cafes and Restaurants,
376,-37.7996334,144.9897172,Libertine & Co.,141 Johnston St Collingwood VIC 3066,Collingwood,,4511,Cafes and Restaurants,
377,-37.8052683,144.9833687,MJR Tom Collingwood,108 Smith St Collingwood VIC 3066,Collingwood,,4511,Cafes and Restaurants,
378,-37.804494,144.9917986,Magic Hand Car Wash Collingwood,2 Hood St Collingwood VIC 3066,Collingwood,,4511,Cafes and Restaurants,
379,-37.799521,144.98434,Mama Nee Thai Restaurant,324 Smith St Collingwood VIC 3066,Collingwood,,4511,Cafes and Restaurants,
380,-37.8027967,144.9836144,Mamma Vittoria Pasta Classica,352 Smith St Collingwood VIC 3066,Collingwood,,4511,Cafes and Restaurants,
381,-37.8011638,144.9851514,Mammoth Ice-Cream,17 Little Wellington St Collingwood VIC 3066,Collingwood,,4129,Other Specialised Food Retailing,
382,-37.7996715,144.9901088,Mamor Chocolates Pty Ltd,153 Johnston St Collingwood VIC 3066,Collingwood,,1140,Fruit and Vegetable Processing,
383,-37.8068758,144.9889895,Mankoushe Collingwood,81 Rupert St Collingwood VIC 3066,Collingwood,,4511,Cafes and Restaurants,
384,-37.8068758,144.9889895,Marimo Sushi,73A Rupert St Collingwood VIC 3066,Collingwood,,4511,Cafes and Restaurants,
385,-37.8087695,144.9830963,McDonald's Collingwood #20,1-13 Victoria Pde Collingwood VIC 3066,Collingwood,,4511,Cafes and Restaurants,
386,-37.8047689,144.9834551,Melissa's Cakes,118 Smith St Collingwood VIC 3066,Collingwood,,4511,Cafes and Restaurants,
387,-37.7993815,144.9894486,Melvin Coffee and Kitchen,134 Johnston St Collingwood VIC 3066,Collingwood,,4511,Cafes and Restaurants,
388,-37.800908,144.984059,Milk Jamm,280-282 Smith St Collingwood VIC 3066,Collingwood,,1174,Bakery Product Manufacturing (Non-factory based),
389,-37.8060134,144.9832417,Minh Thai Pty Ltd,76 Smith St Collingwood VIC 3066,Collingwood,,1174,Bakery Product Manufacturing (Non-factory based),
390,-37.8068758,144.9889895,Mint Food Group,39-41 Rupert St Collingwood VIC 3066,Collingwood,,4513,Catering Services,
391,-37.7996462,144.9872757,Molly Rose Brewing,279 Wellington St Collingwood VIC 3066,Collingwood,,4511,Cafes and Restaurants,
392,-37.8021102,144.9888496,Moulin Rouge Catering,13 Vere St Collingwood VIC 3066,Collingwood,,4513,Catering Services,
393,-37.8051269,144.984554,Mr Peel,41-43 Peel St Collingwood VIC 3066,Collingwood,,4511,Cafes and Restaurants,
394,-37.8024675,144.9838273,N Lee Bakery,220 Smith St Collingwood VIC 3066,Collingwood,,1174,Bakery Product Manufacturing (Non-factory based),
395,-37.802955,144.9875698,Nashi,27 Down St Collingwood VIC 3066,Collingwood,,1140,Fruit and Vegetable Processing,
396,-37.8020184,144.9851443,New Jaffa,32 Stanley St Collingwood VIC 3066,Collingwood,,4511,Cafes and Restaurants,
397,-37.7995613,144.9902262,Nighthawks,136 Johnston St Collingwood VIC 3066,Collingwood,,4520,"Pubs, Taverns and Bars",
398,-37.7992268,144.9880669,O'Cha Thai Restaurant,92-94 Johnston St Collingwood VIC 3066,Collingwood,,4511,Cafes and Restaurants,
399,-37.8051269,144.984554,Oxford Larder,18 Peel St Collingwood VIC 3066,Collingwood,,4511,Cafes and Restaurants,
400,-37.8027967,144.9836144,Pabu Grill & Sake,190-192 Smith St Collingwood VIC 3066,Collingwood,,4511,Cafes and Restaurants,
401,-37.7954382,144.9858172,Pacific Diamond Pty Ltd,35-53 Emma St Collingwood VIC 3066,Collingwood,,4129,Other Specialised Food Retailing,
402,-37.80753,144.982928,Papirica,22 Smith St Collingwood VIC 3066,Collingwood,,4511,Cafes and Restaurants,
403,-37.7980391,144.9862121,Paradise Alley / Little Latin Lucy,25 Easey St Collingwood VIC 3066,Collingwood,,4511,Cafes and Restaurants,
404,-37.8058811,144.9876373,Peter Watson Australia Pty Ltd,23 Robert St Collingwood VIC 3066,Collingwood,,1140,Fruit and Vegetable Processing,
405,-37.800422,144.98417,Piccolina Gelateria,296 Smith St Collingwood VIC 3066,Collingwood,,4511,Cafes and Restaurants,
406,-37.8087695,144.9830963,Pizza Hut,27 Victoria Pde Collingwood VIC 3066,Collingwood,,4512,Takeaway Food Services,
407,-37.80516,144.983949,Plug Nickel Cafe,7 Peel St Collingwood VIC 3066,Collingwood,,4511,Cafes and Restaurants,
408,-37.8087695,144.9830963,Prince Patrick Hotel,135-137 Victoria Pde Collingwood VIC 3066,Collingwood,,4511,Cafes and Restaurants,
409,-37.8044502,144.9853714,Project Forty Nine,107 Cambridge St Collingwood VIC 3066,Collingwood,,4511,Cafes and Restaurants,
410,-37.802337,144.985247,Proud Mary,172 Oxford St Collingwood VIC 3066,Collingwood,,4511,Cafes and Restaurants,
411,-37.7996462,144.9872757,Proud Mary Coffee Roasters & Aunty Peg's,194-202 Wellington St Collingwood VIC 3066,Collingwood,,4511,Cafes and Restaurants,
412,-37.8060134,144.9832417,Proud Sprout,76 Smith St Collingwood VIC 3066,Collingwood,,4511,Cafes and Restaurants,
413,-37.7994442,144.9878265,Punjabi-Curry-Café,87 Johnston St Collingwood VIC 3066,Collingwood,,4511,Cafes and Restaurants,
414,-37.7995613,144.9902262,Raffles Place,68-70 Johnston St Collingwood VIC 3066,Collingwood,,4511,Cafes and Restaurants,
415,-37.8027967,144.9836144,Red Sparrow Pizza,406 Smith St Collingwood VIC 3066,Collingwood,,4512,Takeaway Food Services,
416,-37.8027967,144.9836144,Robert Burns Hotel,376 Smith St Collingwood VIC 3066,Collingwood,,4511,Cafes and Restaurants,
417,-37.8014345,144.9839729,Rock Salt & Vinegar,258 Smith St Collingwood VIC 3066,Collingwood,,4512,Takeaway Food Services,
418,-37.8068758,144.9889895,Rupert Street Child Care Centre,117-119 Rupert St Collingwood VIC 3066,Collingwood,,8710,Child Care Services,
419,-37.8063772,144.9890053,Rupert on Rupert Pty Ltd,73 Rupert St Collingwood VIC 3066,Collingwood,,4511,Cafes and Restaurants,
420,-37.8028947,144.9837522,S & J Lotto & Gifts,200 Smith St Collingwood VIC 3066,Collingwood,,4129,Other Specialised Food Retailing,
421,-37.800233,144.984221,Saint Crispin,300 Smith St Collingwood VIC 3066,Collingwood,,4511,Cafes and Restaurants,
422,-37.799149,144.984815,Savanna African Restaurant & Cafe,7 Johnston St Collingwood VIC 3066,Collingwood,,4511,Cafes and Restaurants,
423,-37.799651,144.989902,Shu,147 Johnston St Collingwood VIC 3066,Collingwood,,4511,Cafes and Restaurants,
424,-37.806551,144.983129,SiBar,60 Smith St Collingwood VIC 3066,Collingwood,,4511,Cafes and Restaurants,
425,-37.8027967,144.9836144,Slamwich,374 Smith St Collingwood VIC 3066,Collingwood,,4511,Cafes and Restaurants,
426,-37.8087695,144.9830963,Smeg Australia,155 Victoria Pde Collingwood VIC 3066,Collingwood,,4511,Cafes and Restaurants,
427,-37.806059,144.983233,Smith Kebabs,74 Smith St Collingwood VIC 3066,Collingwood,,4511,Cafes and Restaurants,
428,-37.800176,144.984232,Smith St Alimentari,302 Smith St Collingwood VIC 3066,Collingwood,,4511,Cafes and Restaurants,
429,-37.802659,144.983792,Smith Street Newsagency,212 Smith St Collingwood VIC 3066,Collingwood,,4129,Other Specialised Food Retailing,
430,-37.8027967,144.9836144,Smithward Bar,48 Smith St Collingwood VIC 3066,Collingwood,,4511,Cafes and Restaurants,
431,-37.7995613,144.9902262,Son in Law by Ayatana,56-58 Johnston St Collingwood VIC 3066,Collingwood,,4511,Cafes and Restaurants,
432,-37.8025305,144.9838161,Sonsa Markets Pty Ltd,216-218 Smith St Collingwood VIC 3066,Collingwood,,4511,Cafes and Restaurants,
433,-37.805486,144.983338,Sook Bar & Restaurant,98 Smith St Collingwood VIC 3066,Collingwood,,4511,Cafes and Restaurants,
434,-37.806001,144.984635,South of Johnston,46 Oxford St Collingwood VIC 3066,Collingwood,,4511,Cafes and Restaurants,
435,-37.8047696,144.9911164,Stomping Ground Brewery & Taphouse,100 Gipps St Collingwood VIC 3066,Collingwood,,4511,Cafes and Restaurants,
436,-37.8069563,144.9899047,Streat,62-70 Cromwell St Collingwood VIC 3066,Collingwood,,4511,Cafes and Restaurants,
437,-37.8029442,144.9837392,Subway Collingwood,198 Smith St Collingwood VIC 3066,Collingwood,,4512,Takeaway Food Services,
438,-37.8015691,144.9839542,Sunny's Bakery,252 Smith St Collingwood VIC 3066,Collingwood,,1174,Bakery Product Manufacturing (Non-factory based),
439,-37.7995613,144.9902262,Terror Twilight,11-13 Johnston St Collingwood VIC 3066,Collingwood,,4511,Cafes and Restaurants,
440,-37.7995613,144.9902262,The Artisan Wife,159 Johnston St Collingwood VIC 3066,Collingwood,,4511,Cafes and Restaurants,
441,-37.8027967,144.9836144,The Craft & Co,390-394 Smith St Collingwood VIC 3066,Collingwood,,4511,Cafes and Restaurants,
442,-37.8048947,144.9912345,The Dwinks Company,13/18 Islington St Collingwood VIC 3066,Collingwood,,1140,Fruit and Vegetable Processing,
443,-37.7945395,144.9879758,The Fox Hotel 1187,351 Wellington St Collingwood VIC 3066,Collingwood,,4511,Cafes and Restaurants,
444,-37.7963943,144.987526,The Gem Bar and Dining Room,289 Wellington St Collingwood VIC 3066,Collingwood,,4511,Cafes and Restaurants,
445,-37.798965,144.9854369,The Horn African Café,20 Johnston St Collingwood VIC 3066,Collingwood,,4511,Cafes and Restaurants,
446,-37.8069563,144.9899047,The Japanese Bath House,59 Cromwell St Collingwood VIC 3066,Collingwood,,4511,Cafes and Restaurants,
447,-37.7963943,144.987526,The Limp Brisket,289 Wellington St Collingwood VIC 3066,Collingwood,,4511,Cafes and Restaurants,
448,-37.7988037,144.989939,The Mill Brewery,40 Sackville St Collingwood VIC 3066,Collingwood,,4520,"Pubs, Taverns and Bars",
449,-37.802148,144.9850819,The Moon,28A Stanley St Collingwood VIC 3066,Collingwood,,4511,Cafes and Restaurants,
450,-37.800846,144.98407,The Noble Experiment,284 Smith St Collingwood VIC 3066,Collingwood,,4511,Cafes and Restaurants,
451,-37.8051269,144.984554,The Peel Hotel,46 Peel St Collingwood VIC 3066,Collingwood,,4520,"Pubs, Taverns and Bars",
452,-37.8028064,144.9837684,The Source Bulk Foods Fitzroy,202 Smith St Collingwood VIC 3066,Collingwood,,3601,General Line Grocery Wholesaling,
453,-37.8081567,144.9828572,The Store of Requirement,6 Smith St Collingwood VIC 3066,Collingwood,,4511,Cafes and Restaurants,
454,-37.7995613,144.9902262,The Tote Hotel,67-71 Johnston St Collingwood VIC 3066,Collingwood,,4520,"Pubs, Taverns and Bars",
455,-37.806143,144.983214,Tokushima Japanese Restaurant,70 Smith St Collingwood VIC 3066,Collingwood,,4511,Cafes and Restaurants,
456,-37.7988037,144.989939,Tom's,44 Sackville St Collingwood VIC 3066,Collingwood,,4511,Cafes and Restaurants,
457,-37.8027967,144.9836144,Tomboy,356 Smith St Collingwood VIC 3066,Collingwood,,4511,Cafes and Restaurants,
458,-37.8027967,144.9836144,Tonkin Bar & Grill,346 Smith St Collingwood VIC 3066,Collingwood,,4511,Cafes and Restaurants,
459,-37.8027967,144.9836144,Trang Bakery,382 Smith St Collingwood VIC 3066,Collingwood,,1174,Bakery Product Manufacturing (Non-factory based),
460,-37.8051269,144.984554,Two Birds Café,31A Peel St Collingwood VIC 3066,Collingwood,,4511,Cafes and Restaurants,
461,-37.8092541,144.989115,Victoria Deli,165 Victoria Pde Collingwood VIC 3066,Collingwood,,4511,Cafes and Restaurants,
462,-37.8048947,144.9912345,Vincenzo's Bakery,25-31 Islington St Collingwood VIC 3066,Collingwood,,1140,Fruit and Vegetable Processing,
463,-37.8055735,144.9833203,Wabi Sabi Salon,94 Smith St Collingwood VIC 3066,Collingwood,,4511,Cafes and Restaurants,
464,-37.8073967,144.984113,Wendy's Warehouse Kitchen,4/93 Oxford St Collingwood VIC 3066,Collingwood,,4129,Other Specialised Food Retailing,
465,-37.803802,144.986715,Wet on Wellington,162 Wellington St Collingwood VIC 3066,Collingwood,,4511,Cafes and Restaurants,
466,-37.8027967,144.9836144,Wing Station,444 Smith St Collingwood VIC 3066,Collingwood,,4512,Takeaway Food Services,
467,-37.8027967,144.9836144,Woking Amazing,358 Smith St Collingwood VIC 3066,Collingwood,,4511,Cafes and Restaurants,
468,-37.8027967,144.9836144,Worksmith Collingwood,444 Smith St Collingwood VIC 3066,Collingwood,,4513,Catering Services,
469,-37.8030344,144.9837238,Xeom,194 Smith St Collingwood VIC 3066,Collingwood,,4511,Cafes and Restaurants,
470,-37.7997351,144.9907713,Yesil Irmak,171 Johnston St Collingwood VIC 3066,Collingwood,,4511,Cafes and Restaurants,
471,-37.830898,144.994999,3 Lives,76 Chestnut St Cremorne VIC 3121,Cremorne,,4511,Cafes and Restaurants,
472,-37.8271,145.0064,7-Eleven,200/658 Church St Cremorne VIC 3121,Cremorne,,4110,Supermarket and Grocery Stores,
473,-37.8253997,144.9944299,Almost French,138 Swan St Cremorne VIC 3121,Cremorne,,4511,Cafes and Restaurants,
474,-37.8291642,144.9971351,Area 3 Food + Events,560 Church St Cremorne VIC 3121,Cremorne,,4511,Cafes and Restaurants,
475,-37.8253801,144.9942533,BWS,132-134 Swan St Cremorne VIC 3121,Cremorne,,4129,Other Specialised Food Retailing,
476,-37.8301818,144.9937501,Balmain Take Away,38 Balmain St Cremorne VIC 3121,Cremorne,,4512,Takeaway Food Services,
477,-37.8253147,144.9936646,Beer & Burger Cafe,112 Swan St Cremorne VIC 3121,Cremorne,,4511,Cafes and Restaurants,
478,-37.825609,144.9963137,Blackhearts and Sparrows Wine Purveyors,202 Swan St Cremorne VIC 3121,Cremorne,,4129,Other Specialised Food Retailing,
479,-37.8252886,144.9934291,Buddha's Banquet,104 Swan St Cremorne VIC 3121,Cremorne,,4512,Takeaway Food Services,
480,-37.8267948,144.9919957,Buttercup Bakery,2 Fitzgibbon St Cremorne VIC 3121,Cremorne,,4513,Catering Services,
481,-37.829528,144.990396,Cafe Ra Ra,165 Cremorne St Cremorne VIC 3121,Cremorne,,4511,Cafes and Restaurants,
482,-37.8277117,144.9918321,Café Tazza,10/98 Dover St Cremorne VIC 3121,Cremorne,,4511,Cafes and Restaurants,
483,-37.8298809,144.9971821,Card N All,458 Church St Cremorne VIC 3121,Cremorne,,4129,Other Specialised Food Retailing,
484,-37.8284982,144.993588,Cherry Tree Hotel,112 Stephenson St Cremorne VIC 3121,Cremorne,,4511,Cafes and Restaurants,
485,-37.8280417,144.9937203,Coe & Coe,25 Stephenson St Cremorne VIC 3121,Cremorne,,4511,Cafes and Restaurants,
486,-37.8254909,144.9947938,Coles,150 Swan St Cremorne VIC 3121,Cremorne,,4110,Supermarket and Grocery Stores,
487,-37.827953,144.9883024,Coles Express Richmond,399-411 Punt Rd Cremorne VIC 3121,Cremorne,,4110,Supermarket and Grocery Stores,
488,-37.8255632,144.9959016,Coles Online,188-190 Swan St Cremorne VIC 3121,Cremorne,,4110,Supermarket and Grocery Stores,
489,-37.8283855,144.9924652,Cremorne Garden Cafe,4-6 Cubitt St Cremorne VIC 3121,Cremorne,,4511,Cafes and Restaurants,
490,-37.829528,144.990396,Cremorne Street Bakers,133 Cremorne St Cremorne VIC 3121,Cremorne,,4513,Catering Services,
491,-37.8298809,144.9971821,Crust Gourmet Pizza Bar,6 456 Church St Cremorne VIC 3121,Cremorne,,4512,Takeaway Food Services,
492,-37.830898,144.994999,Denis The Menace,106-108 Chestnut St Cremorne VIC 3121,Cremorne,,4511,Cafes and Restaurants,
493,-37.8283855,144.9924652,Dr Marty's Crumpets,78 Cubitt St Cremorne VIC 3121,Cremorne,,1140,Fruit and Vegetable Processing,
494,-37.8257395,144.9974894,Dumpling King,228 Swan St Cremorne VIC 3121,Cremorne,,4511,Cafes and Restaurants,
495,-37.8283855,144.9924652,Earl Productions,15 Cubitt St Cremorne VIC 3121,Cremorne,,1140,Fruit and Vegetable Processing,
496,-37.8253016,144.9935469,Eazy Peazy,108 Swan St Cremorne VIC 3121,Cremorne,,4511,Cafes and Restaurants,
497,-37.829528,144.990396,Est. 1983,20 Cremorne St Cremorne VIC 3121,Cremorne,,4512,Takeaway Food Services,
498,-37.8256672,144.9968379,Fargo & Co.,214-216 Swan St Cremorne VIC 3121,Cremorne,,4511,Cafes and Restaurants,
499,-37.8255501,144.9957839,Foxes Den,184 Swan St Cremorne VIC 3121,Cremorne,,4512,Takeaway Food Services,
500,-37.829528,144.990396,Frederic Pty Ltd,9-11 Cremorne St Cremorne VIC 3121,Cremorne,,4511,Cafes and Restaurants,
501,-37.8254847,144.9951952,Gelato Messina,164 Swan St Cremorne VIC 3121,Cremorne,,4511,Cafes and Restaurants,
502,-37.832706,144.9963537,Ginja Ninja Richmond,658 Church St Cremorne VIC 3121,Cremorne,,4511,Cafes and Restaurants,
503,-37.8298809,144.9971821,Happy Tummy Catering & Café,466 Church St Cremorne VIC 3121,Cremorne,,4511,Cafes and Restaurants,
504,-37.8282061,144.9958372,Heresy,1/17 William St Cremorne VIC 3121,Cremorne,,4512,Takeaway Food Services,
505,-37.8284982,144.993588,Hey Tiger,58-66 Stephenson St Cremorne VIC 3121,Cremorne,,1140,Fruit and Vegetable Processing,
506,-37.8249062,144.9911605,Holliava,36 Swan St Cremorne VIC 3121,Cremorne,,4511,Cafes and Restaurants,
507,-37.8314873,144.9926696,Hunted & Gathered,68 Gwynne St Cremorne VIC 3121,Cremorne,,4512,Takeaway Food Services,
508,-37.8256155,144.9963726,KoKoRo Japanese,204 Swan St Cremorne VIC 3121,Cremorne,,4512,Takeaway Food Services,
509,-37.8304072,144.9953223,La Manna & Sons Espresso,98 Balmain St Cremorne VIC 3121,Cremorne,,4511,Cafes and Restaurants,
510,-37.832706,144.9963537,La Vita Café,658 Church St Cremorne VIC 3121,Cremorne,,4511,Cafes and Restaurants,
511,-37.829528,144.990396,Launch Pad,132-138 Cremorne St Cremorne VIC 3121,Cremorne,,4129,Other Specialised Food Retailing,
512,-37.8302654,144.993425,Lieux Events and Space,64 Balmain St Cremorne VIC 3121,Cremorne,,4511,Cafes and Restaurants,
513,-37.8271,145.0064,Localized,4-5/114 Swan St Cremorne VIC 3121,Cremorne,,4122,Fruit and Vegetable Retailing,
514,-37.8255109,144.9954307,Lord of THe Fries,172 Swan St Cremorne VIC 3121,Cremorne,,4512,Takeaway Food Services,
515,-37.8298809,144.9971821,Maeve Fox,472 Church St Cremorne VIC 3121,Cremorne,,4511,Cafes and Restaurants,
516,-37.8261747,144.9963507,Method Expresso Melbourne,3 Railway Pl Cremorne VIC 3121,Cremorne,,4511,Cafes and Restaurants,
517,-37.829528,144.990396,Miss Frankie,24-28 Cremorne St Cremorne VIC 3121,Cremorne,,4511,Cafes and Restaurants,
518,-37.8257602,144.9976755,My Oh My Espresso,232 Swan St Cremorne VIC 3121,Cremorne,,4511,Cafes and Restaurants,
519,-37.8255305,144.9956073,NN (Nhan Ngai),178 Swan St Cremorne VIC 3121,Cremorne,,4511,Cafes and Restaurants,
520,-37.8277117,144.9918321,Ned's Bake,122 Dover St Cremorne VIC 3121,Cremorne,,1140,Fruit and Vegetable Processing,
521,-37.8249062,144.9911605,Nine T Four,94 Swan St Cremorne VIC 3121,Cremorne,,4520,"Pubs, Taverns and Bars",
522,-37.8252951,144.993488,Pickapokit,106 Swan St Cremorne VIC 3121,Cremorne,,4512,Takeaway Food Services,
523,-37.8249062,144.9911605,Precinct Hotel,60-62 Swan St Cremorne VIC 3121,Cremorne,,4511,Cafes and Restaurants,
524,-37.8256465,144.9966518,Priceline Pharmacy Richmond,210 Swan St Cremorne VIC 3121,Cremorne,,4129,Other Specialised Food Retailing,
525,-37.8284982,144.993588,Raw Trader,68-76 Stephenson St Cremorne VIC 3121,Cremorne,,1140,Fruit and Vegetable Processing,
526,-37.8252755,144.9933114,Richmond Club Hotel,100 Swan St Cremorne VIC 3121,Cremorne,,4511,Cafes and Restaurants,
527,-37.8256477,144.9963182,Richmond Pie Shop,200 Swan St Cremorne VIC 3121,Cremorne,,1174,Bakery Product Manufacturing (Non-factory based),
528,-37.8298809,144.9971821,Sabai at Richmond,460 Church St Cremorne VIC 3121,Cremorne,,4511,Cafes and Restaurants,
529,-37.8253708,144.9892856,Seed + Grain,5 Huckerby St Cremorne VIC 3121,Cremorne,,4129,Other Specialised Food Retailing,
530,-37.8254913,144.9952541,Silver Boy Bakery,166 Swan St Cremorne VIC 3121,Cremorne,,4512,Takeaway Food Services,
531,-37.829528,144.990396,Sloane Ranger,101/13 Cremorne St Cremorne VIC 3121,Cremorne,,4511,Cafes and Restaurants,
532,-37.829528,144.990396,South Of The Wall,2-4 Cremorne St Cremorne VIC 3121,Cremorne,,4511,Cafes and Restaurants,
533,-37.8257292,144.9973963,Spudbar Richmond,226 Swan St Cremorne VIC 3121,Cremorne,,4511,Cafes and Restaurants,
534,-37.8284982,144.993588,Square One Coffee Roasters,58-66 Stephenson St Cremorne VIC 3121,Cremorne,,1140,Fruit and Vegetable Processing,
535,-37.827953,144.9883024,Sublime,449 Punt Rd Cremorne VIC 3121,Cremorne,,4513,Catering Services,
536,-37.8255174,144.9954896,T & L Bakery & Cafe,174 Swan St Cremorne VIC 3121,Cremorne,,4511,Cafes and Restaurants,
537,-37.8249062,144.9911605,Tawunna Thai Restaurant,30-32 Swan St Cremorne VIC 3121,Cremorne,,4511,Cafes and Restaurants,
538,-37.8298809,144.9971821,Thai Ayothaya,468 Church St Cremorne VIC 3121,Cremorne,,4511,Cafes and Restaurants,
539,-37.8283855,144.9924652,The Big Group,38-40 Cubitt St Cremorne VIC 3121,Cremorne,,4513,Catering Services,
540,-37.8249062,144.9911605,The G Bar - Schnitzels Burgers Steaks,96 Swan St Cremorne VIC 3121,Cremorne,,4511,Cafes and Restaurants,
541,-37.8271,145.0064,The Industrial Café,1/97-99 Dover St Cremorne VIC 3121,Cremorne,,4512,Takeaway Food Services,
542,-37.825524,144.9955484,The Modern Eatery,176 Swan St Cremorne VIC 3121,Cremorne,,4511,Cafes and Restaurants,
543,-37.8252373,144.9930657,The Posty,90 Swan St Cremorne VIC 3121,Cremorne,,4511,Cafes and Restaurants,
544,-37.8257912,144.9979547,The Ugly Duckling Wine Bar,238 Swan St Cremorne VIC 3121,Cremorne,,4511,Cafes and Restaurants,
545,-37.8249062,144.9911605,The Wrap Shack,98 Swan St Cremorne VIC 3121,Cremorne,,4512,Takeaway Food Services,
546,-37.8249062,144.9911605,Tobacco Station,3/116A Swan St Cremorne VIC 3121,Cremorne,,4129,Other Specialised Food Retailing,
547,-37.832706,144.9963537,Top Paddock Cafe,658 Church St Cremorne VIC 3121,Cremorne,,4511,Cafes and Restaurants,
548,-37.8255567,144.9958428,United Sushi Ahipoke,186 Swan St Cremorne VIC 3121,Cremorne,,4511,Cafes and Restaurants,
549,-37.8249062,144.9911605,Vertue Coffee Roasters,34 Swan St Cremorne VIC 3121,Cremorne,,4511,Cafes and Restaurants,
550,-37.8253932,144.994371,Winning Post Tobacconist,136 Swan St Cremorne VIC 3121,Cremorne,,4129,Other Specialised Food Retailing,
551,-37.8298809,144.9971821,Yo Sushi Noodle,462 Church St Cremorne VIC 3121,Cremorne,,4512,Takeaway Food Services,
552,-37.783193,145.018267,BP Fairfield,490-500 Heidelberg Rd Fairfield VIC 3078,Fairfield,,4110,Supermarket and Grocery Stores,
553,-37.7847836,145.0174401,Cakes by Laura,56 Park Cres Fairfield VIC 3078,Fairfield,,4129,Other Specialised Food Retailing,
554,-37.7851892,145.0116761,Fairfield Park Boathouse,1 Fairfield Park Dr Fairfield VIC 3078,Fairfield,,4511,Cafes and Restaurants,
555,-37.7829,145.0226,Fitzroy City Soccer Club,280-350 Heidelberg Rd Fairfield VIC 3078,Fairfield,,4530,Clubs (Hospitality),
556,-37.7847836,145.0174401,Grandel Supported Residential Services,44 Park Cres Fairfield VIC 3078,Fairfield,,8609,Other Residential Care Services,
557,-37.7880653,145.0129158,Melbourne Polytechnic - Fairfield Cafe,101 Yarra Bend Rd Fairfield VIC 3078,Fairfield,,4511,Cafes and Restaurants,
558,-37.7880653,145.0129158,Melbourne Polytechnic - Nursery Cafe,101 Yarra Bend Rd Fairfield VIC 3078,Fairfield,,4511,Cafes and Restaurants,
559,-37.7989247,145.0087765,Thomas Embling Hospital,201 Yarra Bend Rd Fairfield VIC 3078,Fairfield,,4511,Cafes and Restaurants,
560,-37.7989247,145.0087765,Yarra Bend Golf Course,Yarra Bend Rd Fairfield VIC 3078,Fairfield,,4530,Clubs (Hospitality),
561,-37.7989247,145.0087765,Yarra Jets Soccer Club,Yarra Bend Rd Fairfield VIC 3078,Fairfield,,4511,Cafes and Restaurants,
562,-37.7937436,144.9851701,413 Fahrenheit Pizza,4/1-3 Smith St Fitzroy VIC 3065,Fitzroy,,4512,Takeaway Food Services,
563,-37.798579,144.978268,7 Eleven Store Number 1138D,295 Brunswick St Fitzroy VIC 3065,Fitzroy,,4110,Supermarket and Grocery Stores,
564,-37.7977503,144.9754991,7-Eleven 1279 B,244 Nicholson St Fitzroy VIC 3065,Fitzroy,,4110,Supermarket and Grocery Stores,
565,-37.7943237,144.9814471,Acacia Fitzroy Creche,187 Napier St Fitzroy VIC 3065,Fitzroy,,8710,Child Care Services,
566,-37.7989778,144.9832021,Addict,240-242 Johnston St Fitzroy VIC 3065,Fitzroy,,4511,Cafes and Restaurants,
567,-37.7984,144.9783,Advanced Fresh Concepts Pty Ltd,243-255 Smith St Fitzroy VIC 3065,Fitzroy,,4512,Takeaway Food Services,
568,-37.7973855,144.9784602,Afghan Gallery Restaurant,327 Brunswick St Fitzroy VIC 3065,Fitzroy,,4511,Cafes and Restaurants,
569,-37.797006,144.978848,Al Metro,342 Brunswick St Fitzroy VIC 3065,Fitzroy,,4511,Cafes and Restaurants,
570,-37.7982754,144.9766564,Ali Baba Kebab Cottage,60 Johnston St Fitzroy VIC 3065,Fitzroy,,4512,Takeaway Food Services,
571,-37.803143,144.977468,Amarillo,149 Brunswick St Fitzroy VIC 3065,Fitzroy,,4511,Cafes and Restaurants,
572,-37.8060231,144.9811507,Anada Bar & Restaurant,197 Gertrude St Fitzroy VIC 3065,Fitzroy,,4511,Cafes and Restaurants,
573,-37.7979061,144.9756259,Anatolia Tantani,15 Johnston St Fitzroy VIC 3065,Fitzroy,,4511,Cafes and Restaurants,
574,-37.8060083,144.981038,Arcadia Café,193 Gertrude St Fitzroy VIC 3065,Fitzroy,,4511,Cafes and Restaurants,
575,-37.8059961,144.9808992,Archie's All Day,189 Gertrude St Fitzroy VIC 3065,Fitzroy,,4511,Cafes and Restaurants,
576,-37.8027162,144.9796212,Asian Mart Grocery,125 Napier St Fitzroy VIC 3065,Fitzroy,,4513,Catering Services,
577,-37.796905,144.9761998,Astrid Health Bar,10 Spring St Fitzroy VIC 3065,Fitzroy,,4511,Cafes and Restaurants,
578,-37.8027162,144.9796212,Atherton Gardens After School Care,125 Napier St Fitzroy VIC 3065,Fitzroy,,4511,Cafes and Restaurants,
579,-37.7967356,144.9787445,Attaboy Roy,354-356 Brunswick St Fitzroy VIC 3065,Fitzroy,,4511,Cafes and Restaurants,
580,-37.8058744,144.9783731,Aunt Maggies,188-196 Gertrude St Fitzroy VIC 3065,Fitzroy,,4110,Supermarket and Grocery Stores,
581,-37.8059176,144.9776982,Auntie Mai's,96 Gertrude St Fitzroy VIC 3065,Fitzroy,,4511,Cafes and Restaurants,
582,-37.7984,144.9783,Australia Post,371-385 Gore St Fitzroy VIC 3065,Fitzroy,,4129,Other Specialised Food Retailing,
583,-37.7987935,144.9827307,BP Fitzroy,143-153 Johnston St Fitzroy VIC 3065,Fitzroy,,4110,Supermarket and Grocery Stores,
584,-37.7967356,144.9787445,Babka Bakery Café,358 Brunswick St Fitzroy VIC 3065,Fitzroy,,4511,Cafes and Restaurants,
585,-37.798246,144.9762881,Bad Decisions,46 Johnston St Fitzroy VIC 3065,Fitzroy,,4520,"Pubs, Taverns and Bars",
586,-37.7998142,144.9782391,Bad Frankie,139-141 Greeves St Fitzroy VIC 3065,Fitzroy,,4511,Cafes and Restaurants,
587,-37.7987935,144.9827307,Bar Liberty,234 Johnston St Fitzroy VIC 3065,Fitzroy,,4511,Cafes and Restaurants,
588,-37.79773,144.978425,Bar Open,317 Brunswick St Fitzroy VIC 3065,Fitzroy,,4520,"Pubs, Taverns and Bars",
589,-37.805373,144.974876,Basta,13 Gertrude St Fitzroy VIC 3065,Fitzroy,,4511,Cafes and Restaurants,
590,-37.798131,144.978688,Baxter's Lot,302 Brunswick St Fitzroy VIC 3065,Fitzroy,,4511,Cafes and Restaurants,
591,-37.8060295,144.9786644,Beatbox Kitchen Fitzroy,130 Gertrude St Fitzroy VIC 3065,Fitzroy,,4512,Takeaway Food Services,
592,-37.7967356,144.9787445,Bell Street Coffee Window,233 Brunswick St Fitzroy VIC 3065,Fitzroy,,4512,Takeaway Food Services,
593,-37.8058744,144.9783731,Belle's Hot Chicken,150-156 Gertrude St Fitzroy VIC 3065,Fitzroy,,4511,Cafes and Restaurants,
594,-37.7943237,144.9814471,Bentwood Fitzroy,237 Napier St Fitzroy VIC 3065,Fitzroy,,4511,Cafes and Restaurants,
595,-37.7967356,144.9787445,Bimbo Deluxe Bar,372-374 Brunswick St Fitzroy VIC 3065,Fitzroy,,4511,Cafes and Restaurants,
596,-37.8058867,144.9796269,Bistro Sou Sou,153 Gertrude St Fitzroy VIC 3065,Fitzroy,,4511,Cafes and Restaurants,
597,-37.799889,144.978373,Black Cat,252 Brunswick St Fitzroy VIC 3065,Fitzroy,,4511,Cafes and Restaurants,
598,-37.7980779,144.978702,Black Pearl Bar,304 Brunswick St Fitzroy VIC 3065,Fitzroy,,4511,Cafes and Restaurants,
599,-37.805313,144.983023,Blackheart & Sparrows,123 Smith St Fitzroy VIC 3065,Fitzroy,,4110,Supermarket and Grocery Stores,
600,-37.7967356,144.9787445,"Blonde, Food and Drink",443 Brunswick St Fitzroy VIC 3065,Fitzroy,,4511,Cafes and Restaurants,
601,-37.80209,144.978072,Blue Chillies,182 Brunswick St Fitzroy VIC 3065,Fitzroy,,4511,Cafes and Restaurants,
602,-37.8017007,144.9778189,Bon Ap',193 Brunswick St Fitzroy VIC 3065,Fitzroy,,4511,Cafes and Restaurants,
603,-37.7967356,144.9787445,Bontempo Pizzeria,416-418 Brunswick St Fitzroy VIC 3065,Fitzroy,,4511,Cafes and Restaurants,
604,-37.79636,144.983649,Breakfast Thieves,420 Gore St Fitzroy VIC 3065,Fitzroy,,4511,Cafes and Restaurants,
605,-37.7967356,144.9787445,Breizoz French Creperie Fitzroy,49 Brunswick St Fitzroy VIC 3065,Fitzroy,,4511,Cafes and Restaurants,
606,-37.8070837,144.9805909,Brooklyn Arts Hotel,50 George St Fitzroy VIC 3065,Fitzroy,,4400,Accommodation,
607,-37.7967356,144.9787445,Brotherhood of St Laurence - Coolibah Centre,67-75 Brunswick St Fitzroy VIC 3065,Fitzroy,,4511,Cafes and Restaurants,
608,-37.7967356,144.9787445,Brunswick Foodworks,170 Brunswick St Fitzroy VIC 3065,Fitzroy,,4512,Takeaway Food Services,
609,-37.8019056,144.9776726,Brunswick St News & Lotto,185 Brunswick St Fitzroy VIC 3065,Fitzroy,,4110,Supermarket and Grocery Stores,
610,-37.7997308,144.9780654,Brunswick Street Alimentari,251 Brunswick St Fitzroy VIC 3065,Fitzroy,,4511,Cafes and Restaurants,
611,-37.8060586,144.9816301,Builders Arms Hotel,211 Gertrude St Fitzroy VIC 3065,Fitzroy,,4511,Cafes and Restaurants,
612,-37.798217,144.9758,Burger Road,30 Johnston St Fitzroy VIC 3065,Fitzroy,,4512,Takeaway Food Services,
613,-37.806186,144.98289,Burnside Coffee,87A Smith St Fitzroy VIC 3065,Fitzroy,,4511,Cafes and Restaurants,
614,-37.798558,144.98415,Buubbub Cafe & Restaurant,353 Smith St Fitzroy VIC 3065,Fitzroy,,4511,Cafes and Restaurants,
615,-37.7967356,144.9787445,Cafe Louis,197B Brunswick St Fitzroy VIC 3065,Fitzroy,,4511,Cafes and Restaurants,
616,-37.8087138,144.982468,Café Vincent's,27 Victoria Pde Fitzroy VIC 3065,Fitzroy,,4511,Cafes and Restaurants,
617,-37.7976603,144.9797449,Capulus and Co.,11-15 Young St Fitzroy VIC 3065,Fitzroy,,4511,Cafes and Restaurants,
618,-37.7987935,144.9827307,Casa Iberica,23-25 Johnston St Fitzroy VIC 3065,Fitzroy,,4511,Cafes and Restaurants,
619,-37.8058744,144.9783731,Chamo Tea,233 Gertrude St Fitzroy VIC 3065,Fitzroy,,4511,Cafes and Restaurants,
620,-37.805901,144.977369,Champion Business Corner,54 Brunswick St Fitzroy VIC 3065,Fitzroy,,4129,Other Specialised Food Retailing,
621,-37.8060566,144.9789484,Charcoal Lane,136 Gertrude St Fitzroy VIC 3065,Fitzroy,,4511,Cafes and Restaurants,
622,-37.7967356,144.9787445,China Bar,325 Brunswick St Fitzroy VIC 3065,Fitzroy,,4511,Cafes and Restaurants,
623,-37.8005915,144.9793963,Chook-ity Wings,27 St David St Fitzroy VIC 3065,Fitzroy,,4513,Catering Services,
624,-37.8070907,144.9746724,Co Ba,41 Victoria Pde Fitzroy VIC 3065,Fitzroy,,4511,Cafes and Restaurants,
625,-37.8037107,144.983298,Coconut Palms,183 Smith St Fitzroy VIC 3065,Fitzroy,,4511,Cafes and Restaurants,
626,-37.7977889,144.9779651,Coles,95-103 Johnston St Fitzroy VIC 3065,Fitzroy,,4110,Supermarket and Grocery Stores,
627,-37.8067779,144.9734819,Commercial Club Hotel,344-348 Nicholson St Fitzroy VIC 3065,Fitzroy,,4511,Cafes and Restaurants,
628,-37.7967356,144.9787445,Compa Gelato,381 Brunswick St Fitzroy VIC 3065,Fitzroy,,1140,Fruit and Vegetable Processing,
629,-37.802612,144.978102,Connie Benn Early Learning Centre,160 Brunswick St Fitzroy VIC 3065,Fitzroy,,8710,Child Care Services,
630,-37.7942931,144.9838482,Converted Church,278 Gore St Fitzroy VIC 3065,Fitzroy,,4513,Catering Services,
631,-37.8049661,144.98307,Copacabana International,139 Smith St Fitzroy VIC 3065,Fitzroy,,4511,Cafes and Restaurants,
632,-37.7987935,144.9827307,Cruelty Free Shop,124 Johnston St Fitzroy VIC 3065,Fitzroy,,4110,Supermarket and Grocery Stores,
633,-37.800766,144.977878,Curry Smuggler,223 Brunswick St Fitzroy VIC 3065,Fitzroy,,4511,Cafes and Restaurants,
634,-37.8054823,144.9759358,Cutler & Co Restaurant & Bar / Marion,53 Gertrude St Fitzroy VIC 3065,Fitzroy,,4511,Cafes and Restaurants,
635,-37.800896,144.977842,Delicia Fitzroy,215 Brunswick St Fitzroy VIC 3065,Fitzroy,,4511,Cafes and Restaurants,
636,-37.7964777,144.9762791,Dimattina Coffee / 30Kerr65,30 Kerr St Fitzroy VIC 3065,Fitzroy,,3601,General Line Grocery Wholesaling,
637,-37.7967356,144.9787445,Doomsday Supplies,195A Brunswick St Fitzroy VIC 3065,Fitzroy,,4511,Cafes and Restaurants,
638,-37.7967356,144.9787445,Doughlord,385 Brunswick St Fitzroy VIC 3065,Fitzroy,,4511,Cafes and Restaurants,
639,-37.7967356,144.9787445,E-Life Trading Australia Pty Ltd,109-111 Brunswick St Fitzroy VIC 3065,Fitzroy,,4110,Supermarket and Grocery Stores,
640,-37.7967356,144.9787445,East Meets West Restaurant,406 Brunswick St Fitzroy VIC 3065,Fitzroy,,4511,Cafes and Restaurants,
641,-37.8072542,144.9778465,Ecco Hospitality,115 Victoria Pde Fitzroy VIC 3065,Fitzroy,,4511,Cafes and Restaurants,
642,-37.79852,144.978975,Egglab,122 Johnston St Fitzroy VIC 3065,Fitzroy,,4512,Takeaway Food Services,
643,-37.7967356,144.9787445,El Camino,218-222 Brunswick St Fitzroy VIC 3065,Fitzroy,,4511,Cafes and Restaurants,
644,-37.799489,144.978477,Elektra Caffe,268 Brunswick St Fitzroy VIC 3065,Fitzroy,,4511,Cafes and Restaurants,
645,-37.805572,144.976576,Ends & Means,79 Gertrude St Fitzroy VIC 3065,Fitzroy,,4511,Cafes and Restaurants,
646,-37.7964777,144.9762791,Euro Kitchen Cafe,100 Kerr St Fitzroy VIC 3065,Fitzroy,,4511,Cafes and Restaurants,
647,-37.8058744,144.9783731,Evies Disco Diner,230-232 Gertrude St Fitzroy VIC 3065,Fitzroy,,4511,Cafes and Restaurants,
648,-37.7937436,144.9851701,F.A.T Fried and Tasty,41-47 Smith St Fitzroy VIC 3065,Fitzroy,,4511,Cafes and Restaurants,
649,-37.7968409,144.9753197,Fagito Café,268 Nicholson St Fitzroy VIC 3065,Fitzroy,,4511,Cafes and Restaurants,
650,-37.7942931,144.9838482,Faraday's Cage,325-329 Gore St Fitzroy VIC 3065,Fitzroy,,1174,Bakery Product Manufacturing (Non-factory based),
651,-37.7967356,144.9787445,Farro Fitzroy,301 Brunswick St Fitzroy VIC 3065,Fitzroy,,4511,Cafes and Restaurants,
652,-37.80639,144.982197,Fatto a Mano,228 Gertrude St Fitzroy VIC 3065,Fitzroy,,1174,Bakery Product Manufacturing (Non-factory based),
653,-37.797074,144.978508,Fina's Vegetarian Cafe 2,339 Brunswick St Fitzroy VIC 3065,Fitzroy,,4511,Cafes and Restaurants,
654,-37.7982439,144.976241,Fitz Curry Café,44 Johnston St Fitzroy VIC 3065,Fitzroy,,4511,Cafes and Restaurants,
655,-37.7967356,144.9787445,Fitzroy Cellars,409 Brunswick St Fitzroy VIC 3065,Fitzroy,,4129,Other Specialised Food Retailing,
656,-37.8018,144.9836068,Fitzroy Finest Fruit & Vegies,241 Smith St Fitzroy VIC 3065,Fitzroy,,4122,Fruit and Vegetable Retailing,
657,-37.806142,144.982899,Fitzroy Kebabs,89 Smith St Fitzroy VIC 3065,Fitzroy,,4512,Takeaway Food Services,
658,-37.8027162,144.9796212,Fitzroy Learning Network,125 Napier St Fitzroy VIC 3065,Fitzroy,,4513,Catering Services,
659,-37.8005915,144.9793963,Fitzroy Rainbow Hotel,27 St David St Fitzroy VIC 3065,Fitzroy,,4511,Cafes and Restaurants,
660,-37.80402,144.9773058,Fitzroy Rolls,121 Brunswick St Fitzroy VIC 3065,Fitzroy,,4512,Takeaway Food Services,
661,-37.7939718,144.980938,Fitzroy Swimming Pool  C/- Yarra Leisure,160 Alexandra Pde Fitzroy VIC 3065,Fitzroy,,4129,Other Specialised Food Retailing,
662,-37.800871,144.983786,Fitzroy Tasty Rooster,265-267 Smith St Fitzroy VIC 3065,Fitzroy,,4511,Cafes and Restaurants,
663,-37.7987935,144.9827307,Fitzroy Town Hall Hotel,170 Johnston St Fitzroy VIC 3065,Fitzroy,,4511,Cafes and Restaurants,
664,-37.8058744,144.9783731,Foodworks Gertrude Street,169-171 Gertrude St Fitzroy VIC 3065,Fitzroy,,4110,Supermarket and Grocery Stores,
665,-37.803516,144.977426,Freechoice Tobacconist,137 Brunswick St Fitzroy VIC 3065,Fitzroy,,4129,Other Specialised Food Retailing,
666,-37.806,144.980787,Gabriel,187 Gertrude St Fitzroy VIC 3065,Fitzroy,,4511,Cafes and Restaurants,
667,-37.8058744,144.9783731,Gaea Dining,1/166 Gertrude St Fitzroy VIC 3065,Fitzroy,,4511,Cafes and Restaurants,
668,-37.796219,144.979024,Gami Chicken,370 Brunswick St Fitzroy VIC 3065,Fitzroy,,4511,Cafes and Restaurants,
669,-37.80604,144.973766,Garden View Café,44 Nicholson St Fitzroy VIC 3065,Fitzroy,,4511,Cafes and Restaurants,
670,-37.801887,144.9836,Gelato Messina,237 Smith St Fitzroy VIC 3065,Fitzroy,,4511,Cafes and Restaurants,
671,-37.798515,144.9789109,Georges Bar,120 Johnston St Fitzroy VIC 3065,Fitzroy,,4511,Cafes and Restaurants,
672,-37.8058744,144.9783731,Gertrude Street Enoteca,229 Gertrude St Fitzroy VIC 3065,Fitzroy,,4511,Cafes and Restaurants,
673,-37.7967356,144.9787445,Glamorama Bar,393-395 Brunswick St Fitzroy VIC 3065,Fitzroy,,4520,"Pubs, Taverns and Bars",
674,-37.7987935,144.9827307,Goodfellows Fitzroy,125-129 Johnston St Fitzroy VIC 3065,Fitzroy,,4110,Supermarket and Grocery Stores,
675,-37.7987935,144.9827307,Goodlife Health Club,41-49 Johnston St Fitzroy VIC 3065,Fitzroy,,4129,Other Specialised Food Retailing,
676,-37.7957136,144.9768252,Grace Cafe,74-76 Rose St Fitzroy VIC 3065,Fitzroy,,4511,Cafes and Restaurants,
677,-37.8012268,144.9744203,Grub Fitzroy Pty Ltd,87-89 Moor St Fitzroy VIC 3065,Fitzroy,,4511,Cafes and Restaurants,
678,-37.80524,144.983027,Grumpy's Green,125 Smith St Fitzroy VIC 3065,Fitzroy,,4511,Cafes and Restaurants,
679,-37.800815,144.977868,Gutz Café,221 Brunswick St Fitzroy VIC 3065,Fitzroy,,4511,Cafes and Restaurants,
680,-37.7992233,144.9840631,Hanabi Sushi,331 Smith St Fitzroy VIC 3065,Fitzroy,,4512,Takeaway Food Services,
681,-37.7995846,144.9840215,Happy Herbs Shop,317 Smith St Fitzroy VIC 3065,Fitzroy,,4129,Other Specialised Food Retailing,
682,-37.7980631,144.9768659,Hares & Hyenas,63 Johnston St Fitzroy VIC 3065,Fitzroy,,4511,Cafes and Restaurants,
683,-37.800345,144.983852,Hasir Kebabs,285 Smith St Fitzroy VIC 3065,Fitzroy,,4512,Takeaway Food Services,
684,-37.797489,144.978801,Hecho En Mexico,326 Brunswick St Fitzroy VIC 3065,Fitzroy,,4511,Cafes and Restaurants,
685,-37.800288,144.983538,Hell of the North,135 Greeves St Fitzroy VIC 3065,Fitzroy,,4511,Cafes and Restaurants,
686,-37.7967356,144.9787445,Hellenic Souvlaki,346 Brunswick St Fitzroy VIC 3065,Fitzroy,,4512,Takeaway Food Services,
687,-37.799172,144.978146,Henry's Burgers,275 Brunswick St Fitzroy VIC 3065,Fitzroy,,4511,Cafes and Restaurants,
688,-37.800579,144.983832,Hinoki,279 Smith St Fitzroy VIC 3065,Fitzroy,,4512,Takeaway Food Services,
689,-37.7958148,144.9790099,Hooked,384 Brunswick St Fitzroy VIC 3065,Fitzroy,,4511,Cafes and Restaurants,
690,-37.7967356,144.9787445,IGA Plus Liquor,424-428 Brunswick St Fitzroy VIC 3065,Fitzroy,,4110,Supermarket and Grocery Stores,
691,-37.8060268,144.9812022,ISH Restaurant,199 Gertrude St Fitzroy VIC 3065,Fitzroy,,4511,Cafes and Restaurants,
692,-37.7967356,144.9787445,Ichi Ni Nana,125-129 Brunswick St Fitzroy VIC 3065,Fitzroy,,4511,Cafes and Restaurants,
693,-37.7992717,144.9772228,Industry Beans,3/415 Fitzroy St Fitzroy VIC 3065,Fitzroy,,4511,Cafes and Restaurants,
694,-37.7970868,144.9808061,Isme,152 Kerr St Fitzroy VIC 3065,Fitzroy,,4511,Cafes and Restaurants,
695,-37.7937436,144.9851701,Istanbul Kebab Shop,141-143 Smith St Fitzroy VIC 3065,Fitzroy,,4511,Cafes and Restaurants,
696,-37.799385,144.978124,Jaspers Caffeine Dealers,267 Brunswick St Fitzroy VIC 3065,Fitzroy,,4511,Cafes and Restaurants,
697,-37.801077,144.983581,Jimmy Grants (Fitzroy),113 St David St Fitzroy VIC 3065,Fitzroy,,4512,Takeaway Food Services,
698,-37.800613,144.9760756,John St Community Early Childhood Co-op,23 John St Fitzroy VIC 3065,Fitzroy,,8710,Child Care Services,
699,-37.805493,144.98297,KINYOUBI IZAKAYA,117 Smith St Fitzroy VIC 3065,Fitzroy,,4511,Cafes and Restaurants,
700,-37.798248,144.976498,Kanela,56 Johnston St Fitzroy VIC 3065,Fitzroy,,4511,Cafes and Restaurants,
701,-37.7937436,144.9851701,Kent St,201 Smith St Fitzroy VIC 3065,Fitzroy,,4511,Cafes and Restaurants,
702,-37.802712,144.977554,Kimchi Korean Japanese Grocery,161-163 Brunswick St Fitzroy VIC 3065,Fitzroy,,4110,Supermarket and Grocery Stores,
703,-37.799054,144.983733,Kismet Pizza & Kebabs,262 Johnston St Fitzroy VIC 3065,Fitzroy,,4511,Cafes and Restaurants,
704,-37.7984,144.9783,Kitchen for Catering Preparation,3/98-104 George St Fitzroy VIC 3065,Fitzroy,,4513,Catering Services,
705,-37.800925,144.983782,Kobu,263 Smith St Fitzroy VIC 3065,Fitzroy,,4511,Cafes and Restaurants,
706,-37.796478,144.978615,La Bodega De Andres,361 Brunswick St Fitzroy VIC 3065,Fitzroy,,4511,Cafes and Restaurants,
707,-37.805466,144.97707,La Casa Pizza and Pasta,59 Brunswick St Fitzroy VIC 3065,Fitzroy,,4512,Takeaway Food Services,
708,-37.80679,144.982789,La Niche Cafe,67 Smith St Fitzroy VIC 3065,Fitzroy,,4511,Cafes and Restaurants,
709,-37.8014415,144.9776725,Labour in Vain,197 Brunswick St Fitzroy VIC 3065,Fitzroy,,4520,"Pubs, Taverns and Bars",
710,-37.8058744,144.9783731,Ladro Gertrude,222-224 Gertrude St Fitzroy VIC 3065,Fitzroy,,4511,Cafes and Restaurants,
711,-37.797913,144.978712,Lamb on Brunswick St,314 Brunswick St Fitzroy VIC 3065,Fitzroy,,4512,Takeaway Food Services,
712,-37.7992836,144.978146,Le Gourmet Cakes,271 Brunswick St Fitzroy VIC 3065,Fitzroy,,4511,Cafes and Restaurants,
713,-37.8087138,144.982468,Liberty Fitzroy,151-159 Victoria Pde Fitzroy VIC 3065,Fitzroy,,4110,Supermarket and Grocery Stores,
714,-37.8058744,144.9783731,Lights of Ananda Pty Ltd T/as Calere Coffee,1/166 Gertrude St Fitzroy VIC 3065,Fitzroy,,4511,Cafes and Restaurants,
715,-37.7989052,144.9785444,Liquorland,280-284 Brunswick St Fitzroy VIC 3065,Fitzroy,,4129,Other Specialised Food Retailing,
716,-37.7967356,144.9787445,Little Hop,277B Brunswick St Fitzroy VIC 3065,Fitzroy,,4511,Cafes and Restaurants,
717,-37.7967356,144.9787445,Lord of the Fries,383 Brunswick St Fitzroy VIC 3065,Fitzroy,,4512,Takeaway Food Services,
718,-37.7991376,144.9785549,Lucky's Lasagna,274 Brunswick St Fitzroy VIC 3065,Fitzroy,,4511,Cafes and Restaurants,
719,-37.7957136,144.9768252,Lune Croissanterie,119 Rose St Fitzroy VIC 3065,Fitzroy,,1174,Bakery Product Manufacturing (Non-factory based),
720,-37.796189,144.978659,Madame K's Vegetarian,367 Brunswick St Fitzroy VIC 3065,Fitzroy,,4511,Cafes and Restaurants,
721,-37.79954,144.978091,Madame Saigon,263 Brunswick St Fitzroy VIC 3065,Fitzroy,,4511,Cafes and Restaurants,
722,-37.8051179,144.9830414,Madras Brothers,129 Smith St Fitzroy VIC 3065,Fitzroy,,4511,Cafes and Restaurants,
723,-37.8045273,144.9831483,Major Major,5 Smith St Fitzroy VIC 3065,Fitzroy,,4511,Cafes and Restaurants,
724,-37.798632,144.984177,Mamma Vittoria,343 Smith St Fitzroy VIC 3065,Fitzroy,,4511,Cafes and Restaurants,
725,-37.7967356,144.9787445,Marios Café,303 Brunswick St Fitzroy VIC 3065,Fitzroy,,4511,Cafes and Restaurants,
726,-37.7972398,144.9818285,Marquis of Lorne,411 George St Fitzroy VIC 3065,Fitzroy,,4511,Cafes and Restaurants,
727,-37.804749,144.97723,Martha Ray's,85 Brunswick St Fitzroy VIC 3065,Fitzroy,,4511,Cafes and Restaurants,
728,-37.7987935,144.9827307,McCoppins Fitzroy,165-167 Johnston St Fitzroy VIC 3065,Fitzroy,,4129,Other Specialised Food Retailing,
729,-37.8063027,144.9774887,Metropole Hotel Apartments & Conference Centre,44 Brunswick St Fitzroy VIC 3065,Fitzroy,,4511,Cafes and Restaurants,
730,-37.8036514,144.9744989,Metropolitan Canteens Victoria Pty Ltd,88 Nicholson St Fitzroy VIC 3065,Fitzroy,,4511,Cafes and Restaurants,
731,-37.7987935,144.9827307,Mile End Bagels,14-16 Johnston St Fitzroy VIC 3065,Fitzroy,,4511,Cafes and Restaurants,
732,-37.7967356,144.9787445,Milney's Bar,451B Brunswick St Fitzroy VIC 3065,Fitzroy,,4511,Cafes and Restaurants,
733,-37.796901,144.982356,Min Lokal,422 George St Fitzroy VIC 3065,Fitzroy,,4511,Cafes and Restaurants,
734,-37.7993483,144.9840523,Miss Katie's Crab Shack,325 Smith St Fitzroy VIC 3065,Fitzroy,,4511,Cafes and Restaurants,
735,-37.798249,144.984237,Momo Sushi Fitzroy,361 Smith St Fitzroy VIC 3065,Fitzroy,,4512,Takeaway Food Services,
736,-37.8067779,144.9734819,Mon Ami Paris Grill,5/144 Nicholson St Fitzroy VIC 3065,Fitzroy,,4511,Cafes and Restaurants,
737,-37.8040107,144.983241,Monkey Jar,171 Smith St Fitzroy VIC 3065,Fitzroy,,4520,"Pubs, Taverns and Bars",
738,-37.7984,144.9783,Mono XO,191A-191 Smith St Fitzroy VIC 3065,Fitzroy,,4511,Cafes and Restaurants,
739,-37.7956439,144.9844653,Mr Huxley,425 Smith St Fitzroy VIC 3065,Fitzroy,,4511,Cafes and Restaurants,
740,-37.7937436,144.9851701,Mr Wow's Emporium,95-97 Smith St Fitzroy VIC 3065,Fitzroy,,4520,"Pubs, Taverns and Bars",
741,-37.79632,144.978623,Mukka Indian Restuarant,365 Brunswick St Fitzroy VIC 3065,Fitzroy,,4511,Cafes and Restaurants,
742,-37.80102,144.983776,N & J Thai Café,261A Smith St Fitzroy VIC 3065,Fitzroy,,4511,Cafes and Restaurants,
743,-37.798862,144.9782342,Naked for Satan,285 Brunswick St Fitzroy VIC 3065,Fitzroy,,4511,Cafes and Restaurants,
744,-37.800514,144.98384,Nandos Fitzroy,281 Smith St Fitzroy VIC 3065,Fitzroy,,4512,Takeaway Food Services,
745,-37.8016899,144.9803328,Napier Hotel,210 Napier St Fitzroy VIC 3065,Fitzroy,,4511,Cafes and Restaurants,
746,-37.7943237,144.9814471,Napier Quarter,359-361 Napier St Fitzroy VIC 3065,Fitzroy,,4511,Cafes and Restaurants,
747,-37.80624,144.982751,Neko Neko,83 Smith St Fitzroy VIC 3065,Fitzroy,,4511,Cafes and Restaurants,
748,-37.8050442,144.9808243,New School Canteen,379-381 George St Fitzroy VIC 3065,Fitzroy,,4511,Cafes and Restaurants,
749,-37.802175,144.978063,Newtown SC,180 Brunswick St Fitzroy VIC 3065,Fitzroy,,4511,Cafes and Restaurants,
750,-37.8087138,144.982468,Nick's Food Corner,133 Victoria Pde Fitzroy VIC 3065,Fitzroy,,4511,Cafes and Restaurants,
751,-37.8030472,144.9834264,Noi Thai,205 Smith St Fitzroy VIC 3065,Fitzroy,,4511,Cafes and Restaurants,
752,-37.7967356,144.9787445,Nomada Café Y Tapas,412 Brunswick St Fitzroy VIC 3065,Fitzroy,,4511,Cafes and Restaurants,
753,-37.7967356,144.9787445,Nyala African Restaurant,354-356 Brunswick St Fitzroy VIC 3065,Fitzroy,,4511,Cafes and Restaurants,
754,-37.7943689,144.9846891,Officeworks,230 Alexandra Pde Fitzroy VIC 3065,Fitzroy,,4129,Other Specialised Food Retailing,
755,-37.800652,144.983823,Organic Wholefoods,277 Smith St Fitzroy VIC 3065,Fitzroy,,4110,Supermarket and Grocery Stores,
756,-37.7937436,144.9851701,Pablo Escobeans,337 Smith St Fitzroy VIC 3065,Fitzroy,,4512,Takeaway Food Services,
757,-37.801994,144.983586,Panama Dining Room,231 Smith St Fitzroy VIC 3065,Fitzroy,,4511,Cafes and Restaurants,
758,-37.796035,144.978659,Patee Thai Restaurant,371 Brunswick St Fitzroy VIC 3065,Fitzroy,,4511,Cafes and Restaurants,
759,-37.8070907,144.9746724,Patient Food Services - St Vincent's Hospital,41 Victoria Pde Fitzroy VIC 3065,Fitzroy,,8401,Hospitals (Except Psychiatric Hospitals),
760,-37.796466,144.984544,Pavlov's Duck,401 Smith St Fitzroy VIC 3065,Fitzroy,,4511,Cafes and Restaurants,
761,-37.8032009,144.9834047,Peko Peko,199 Smith St Fitzroy VIC 3065,Fitzroy,,4511,Cafes and Restaurants,
762,-37.8014757,144.9781707,Perseverance Hotel,196 Brunswick St Fitzroy VIC 3065,Fitzroy,,4511,Cafes and Restaurants,
763,-37.798262,144.976572,Pho Fitzroy Duyen Duyen,58 Johnston St Fitzroy VIC 3065,Fitzroy,,4511,Cafes and Restaurants,
764,-37.796131,144.978655,Pho La Que Basil Leaf,369 Brunswick St Fitzroy VIC 3065,Fitzroy,,4511,Cafes and Restaurants,
765,-37.802003,144.97768,Phoenix Pho,183 Brunswick St Fitzroy VIC 3065,Fitzroy,,4511,Cafes and Restaurants,
766,-37.8059993,144.9829133,Pixel Alley,95 Smith St Fitzroy VIC 3065,Fitzroy,,4520,"Pubs, Taverns and Bars",
767,-37.7967356,144.9787445,Poke King,385 Brunswick St Fitzroy VIC 3065,Fitzroy,,4511,Cafes and Restaurants,
768,-37.7967356,144.9787445,Polly Bar,401 Brunswick St Fitzroy VIC 3065,Fitzroy,,4511,Cafes and Restaurants,
769,-37.8035466,144.983323,Queen of Spades Bar & Cafe,189 Smith St Fitzroy VIC 3065,Fitzroy,,4511,Cafes and Restaurants,
770,-37.797066,144.978852,Radhey Chai Bar,336 Brunswick St Fitzroy VIC 3065,Fitzroy,,4511,Cafes and Restaurants,
771,-37.7967356,144.9787445,Radio Bar,357 Brunswick St Fitzroy VIC 3065,Fitzroy,,4511,Cafes and Restaurants,
772,-37.797917,144.978367,Rice Paper Scissors,307 Brunswick St Fitzroy VIC 3065,Fitzroy,,4511,Cafes and Restaurants,
773,-37.7967356,144.9787445,Rice Queen (Owner - Laki Papadopoulos),389-391 Brunswick St Fitzroy VIC 3065,Fitzroy,,4511,Cafes and Restaurants,
774,-37.7987935,144.9827307,Rochester Hotel,202-204 Johnston St Fitzroy VIC 3065,Fitzroy,,4511,Cafes and Restaurants,
775,-37.7955069,144.9814035,Rose Hotel,406 Napier St Fitzroy VIC 3065,Fitzroy,,4511,Cafes and Restaurants,
776,-37.7957136,144.9768252,Rose Street Pantry,46 Rose St Fitzroy VIC 3065,Fitzroy,,4511,Cafes and Restaurants,
777,-37.7936608,144.9793918,Royal Derby Hotel,446 Brunswick St Fitzroy VIC 3065,Fitzroy,,4511,Cafes and Restaurants,
778,-37.796649,144.975353,Rriot House,276 Nicholson St Fitzroy VIC 3065,Fitzroy,,4512,Takeaway Food Services,
779,-37.7967356,144.9787445,Rue De Creperie,360 Brunswick St Fitzroy VIC 3065,Fitzroy,,4511,Cafes and Restaurants,
780,-37.7967356,144.9787445,Rustica Sourdough Bakery Cafe,402 Brunswick St Fitzroy VIC 3065,Fitzroy,,4511,Cafes and Restaurants,
781,-37.797392,144.978818,Saba's Ethiopian Restaurant,328 Brunswick St Fitzroy VIC 3065,Fitzroy,,4511,Cafes and Restaurants,
782,-37.798248,144.976457,Saigon Street Eats,52 Johnston St Fitzroy VIC 3065,Fitzroy,,4513,Catering Services,
783,-37.8087138,144.982468,Scent of a Flower Florist Café,135-137 Victoria Pde Fitzroy VIC 3065,Fitzroy,,4511,Cafes and Restaurants,
784,-37.7964901,144.9789495,Select 7 / Free Choice Fitzroy,360A Brunswick St Fitzroy VIC 3065,Fitzroy,,4110,Supermarket and Grocery Stores,
785,-37.7937436,144.9851701,Sen Storm Noodle Bar & Grill,293 Smith St Fitzroy VIC 3065,Fitzroy,,4511,Cafes and Restaurants,
786,-37.7967356,144.9787445,Shawarma Roll & Pizza,318 Brunswick St Fitzroy VIC 3065,Fitzroy,,4512,Takeaway Food Services,
787,-37.7977241,144.9786908,Shawcross Pizza,320 Brunswick St Fitzroy VIC 3065,Fitzroy,,4511,Cafes and Restaurants,
788,-37.802145,144.97764,Shibui Bar,177 Brunswick St Fitzroy VIC 3065,Fitzroy,,4511,Cafes and Restaurants,
789,-37.7967356,144.9787445,Shifty's,375 Brunswick St Fitzroy VIC 3065,Fitzroy,,4511,Cafes and Restaurants,
790,-37.7937436,144.9851701,Shimbashi Japanese Soba and Sake Bar,131-135 Smith St Fitzroy VIC 3065,Fitzroy,,4511,Cafes and Restaurants,
791,-37.7992625,144.984059,Shop Ramen,329 Smith St Fitzroy VIC 3065,Fitzroy,,4511,Cafes and Restaurants,
792,-37.797955,144.97871,Si Senorita,312 Brunswick St Fitzroy VIC 3065,Fitzroy,,4511,Cafes and Restaurants,
793,-37.7942931,144.9838482,Siddha Yoga Foundation,202 Gore St Fitzroy VIC 3065,Fitzroy,,4511,Cafes and Restaurants,
794,-37.7967356,144.9787445,Siki Supermarket,105-107 Brunswick St Fitzroy VIC 3065,Fitzroy,,4110,Supermarket and Grocery Stores,
795,-37.7967356,144.9787445,Sila Espresso Bar,189 Brunswick St Fitzroy VIC 3065,Fitzroy,,4511,Cafes and Restaurants,
796,-37.7987935,144.9827307,Sir Charles,121-123 Johnston St Fitzroy VIC 3065,Fitzroy,,4511,Cafes and Restaurants,
797,-37.7937436,144.9851701,Sircuit/Mollies Bar & Diner,103-105 Smith St Fitzroy VIC 3065,Fitzroy,,4511,Cafes and Restaurants,
798,-37.7937436,144.9851701,Slowbeer,351 Smith St Fitzroy VIC 3065,Fitzroy,,4511,Cafes and Restaurants,
799,-37.802864,144.977535,Slowpoke Espresso,157 Brunswick St Fitzroy VIC 3065,Fitzroy,,4511,Cafes and Restaurants,
800,-37.802243,144.977606,Smith & Daughters,175 Brunswick St Fitzroy VIC 3065,Fitzroy,,4511,Cafes and Restaurants,
801,-37.8012268,144.9744203,Smith & Deli,111 Moor St Fitzroy VIC 3065,Fitzroy,,4511,Cafes and Restaurants,
802,-37.8033024,144.9833897,Smith Street Cellars,195 Smith St Fitzroy VIC 3065,Fitzroy,,4129,Other Specialised Food Retailing,
803,-37.80007,144.983897,Smith's Cakes and Aquilana Pasticceria,297 Smith St Fitzroy VIC 3065,Fitzroy,,1174,Bakery Product Manufacturing (Non-factory based),
804,-37.8058744,144.9783731,Sonido,69 Gertrude St Fitzroy VIC 3065,Fitzroy,,4511,Cafes and Restaurants,
805,-37.79778,144.978413,Sossa (Real Greek Souvlaki),315 Brunswick St Fitzroy VIC 3065,Fitzroy,,4511,Cafes and Restaurants,
806,-37.8057951,144.9752324,Sparrows Philly Cheese Steaks,30-32 Gertrude St Fitzroy VIC 3065,Fitzroy,,4511,Cafes and Restaurants,
807,-37.805166,144.977082,St Mary's House of Welcome,165-169 Brunswick St Fitzroy VIC 3065,Fitzroy,,4511,Cafes and Restaurants,
808,-37.8070907,144.9746724,St Vincent's Public (Main Building - Green Shop),41 Victoria Pde Fitzroy VIC 3065,Fitzroy,,4512,Takeaway Food Services,
809,-37.8087138,144.982468,St Vincents Private Hospital Melbourne Limited,59-61 Victoria Pde Fitzroy VIC 3065,Fitzroy,,8401,Hospitals (Except Psychiatric Hospitals),
810,-37.798959,144.978547,Stagger Lee's,276 Brunswick St Fitzroy VIC 3065,Fitzroy,,4511,Cafes and Restaurants,
811,-37.8007427,144.9768646,Standard Hotel,293 Fitzroy St Fitzroy VIC 3065,Fitzroy,,4511,Cafes and Restaurants,
812,-37.7992717,144.9772228,Sumner House,128 Fitzroy St Fitzroy VIC 3065,Fitzroy,,8601,Aged Care Residential Services,
813,-37.7992342,144.9781506,Sushi Link,273 Brunswick St Fitzroy VIC 3065,Fitzroy,,4512,Takeaway Food Services,
814,-37.7943237,144.9814471,Sushi Train,300 Napier St Fitzroy VIC 3065,Fitzroy,,4511,Cafes and Restaurants,
815,-37.7957136,144.9768252,TFMM Container,75-87 Rose St Fitzroy VIC 3065,Fitzroy,,4511,Cafes and Restaurants,
816,-37.7964477,144.9789549,Tahina Fitzroy,362 Brunswick St Fitzroy VIC 3065,Fitzroy,,4511,Cafes and Restaurants,
817,-37.8058744,144.9783731,Tamura Tapas and Sake Bar,1/43 Gertrude St Fitzroy VIC 3065,Fitzroy,,4511,Cafes and Restaurants,
818,-37.8067779,144.9734819,Tankerville Arms Hotel,236 Nicholson St Fitzroy VIC 3065,Fitzroy,,4511,Cafes and Restaurants,
819,-37.7967356,144.9787445,Tea Too,340 Brunswick St Fitzroy VIC 3065,Fitzroy,,4129,Other Specialised Food Retailing,
820,-37.7986033,144.978272,Thai Thani,293 Brunswick St Fitzroy VIC 3065,Fitzroy,,4511,Cafes and Restaurants,
821,-37.8036557,144.9833093,The 86 Bar,185 Smith St Fitzroy VIC 3065,Fitzroy,,4511,Cafes and Restaurants,
822,-37.7967356,144.9787445,The Aegean Restaurant,17-19 Brunswick St Fitzroy VIC 3065,Fitzroy,,4511,Cafes and Restaurants,
823,-37.7937436,144.9851701,The Birmingham Hotel,333-335 Smith St Fitzroy VIC 3065,Fitzroy,,4511,Cafes and Restaurants,
824,-37.7984,144.9783,The Bitters Lab,9/397 Smith St Fitzroy VIC 3065,Fitzroy,,4129,Other Specialised Food Retailing,
825,-37.79824,144.976186,The Brothers Public House,42 Johnston St Fitzroy VIC 3065,Fitzroy,,4511,Cafes and Restaurants,
826,-37.8057951,144.9752324,The Catfish,30-32 Gertrude St Fitzroy VIC 3065,Fitzroy,,4520,"Pubs, Taverns and Bars",
827,-37.8042401,144.9772845,The Elysian Whiskey Bar,113 Brunswick St Fitzroy VIC 3065,Fitzroy,,4511,Cafes and Restaurants,
828,-37.7967356,144.9787445,The Evelyn Hotel,351-353 Brunswick St Fitzroy VIC 3065,Fitzroy,,4520,"Pubs, Taverns and Bars",
829,-37.8058744,144.9783731,The Everleigh Melbourne,150-156 Gertrude St Fitzroy VIC 3065,Fitzroy,,4511,Cafes and Restaurants,
830,-37.7968516,144.9785347,The Fitz,347 Brunswick St Fitzroy VIC 3065,Fitzroy,,4511,Cafes and Restaurants,
831,-37.8062207,144.9825807,The Fitzroy Beer Garden,243-245 Gertrude St Fitzroy VIC 3065,Fitzroy,,4511,Cafes and Restaurants,
832,-37.7967356,144.9787445,The Food Repository,346 Brunswick St Fitzroy VIC 3065,Fitzroy,,4122,Fruit and Vegetable Retailing,
833,-37.799285,144.978501,The Kodiak Club,272 Brunswick St Fitzroy VIC 3065,Fitzroy,,4511,Cafes and Restaurants,
834,-37.7937436,144.9851701,The Lame Duck,83-87 Smith St Fitzroy VIC 3065,Fitzroy,,4511,Cafes and Restaurants,
835,-37.7987935,144.9827307,The Laundry Bar,48-50 Johnston St Fitzroy VIC 3065,Fitzroy,,4511,Cafes and Restaurants,
836,-37.7987935,144.9827307,The Night Cat,137-141 Johnston St Fitzroy VIC 3065,Fitzroy,,4520,"Pubs, Taverns and Bars",
837,-37.8022578,144.974453,The Nunnery,116 Nicholson St Fitzroy VIC 3065,Fitzroy,,4400,Accommodation,
838,-37.79833,144.97711,The Old Bar,74-76 Johnston St Fitzroy VIC 3065,Fitzroy,,4520,"Pubs, Taverns and Bars",
839,-37.798136,144.9782251,The Provincial Hotel,299 Brunswick St Fitzroy VIC 3065,Fitzroy,,4511,Cafes and Restaurants,
840,-37.8067779,144.9734819,The Pumphouse Hotel,124 Nicholson St Fitzroy VIC 3065,Fitzroy,,4511,Cafes and Restaurants,
841,-37.801257,144.977767,The Rooks Return,201 Brunswick St Fitzroy VIC 3065,Fitzroy,,4511,Cafes and Restaurants,
842,-37.797093,144.978847,The Rum Diary Bar,334 Brunswick St Fitzroy VIC 3065,Fitzroy,,4520,"Pubs, Taverns and Bars",
843,-37.7982227,144.976029,The Shady Lady Fitzroy,36 Johnston St Fitzroy VIC 3065,Fitzroy,,4511,Cafes and Restaurants,
844,-37.79822,144.97868,The Stone Hotel,298-300 Brunswick St Fitzroy VIC 3065,Fitzroy,,4511,Cafes and Restaurants,
845,-37.7989222,144.977281,The Vegetable Connection,95-105 Victoria St Fitzroy VIC 3065,Fitzroy,,4122,Fruit and Vegetable Retailing,
846,-37.799665,144.97808,The Vegetable Connection,255 Brunswick St Fitzroy VIC 3065,Fitzroy,,4122,Fruit and Vegetable Retailing,
847,-37.7958648,144.9790649,The Vegie Bar / Boys & Girls,380 Brunswick St Fitzroy VIC 3065,Fitzroy,,4511,Cafes and Restaurants,
848,-37.7987935,144.9827307,Time 4 Fitness - T4Fitness Pty Ltd,2/131-135 Johnston St Fitzroy VIC 3065,Fitzroy,,4129,Other Specialised Food Retailing,
849,-37.798439,144.984236,Tinman Cafe Bar Restaurant,357 Smith St Fitzroy VIC 3065,Fitzroy,,4511,Cafes and Restaurants,
850,-37.798579,144.978268,Tora Dumplings,295 Brunswick St Fitzroy VIC 3065,Fitzroy,,4511,Cafes and Restaurants,
851,-37.7957136,144.9768252,Transformer Fitzroy,97-99 Rose St Fitzroy VIC 3065,Fitzroy,,4511,Cafes and Restaurants,
852,-37.8058744,144.9783731,Trippy Taco,234 Gertrude St Fitzroy VIC 3065,Fitzroy,,4511,Cafes and Restaurants,
853,-37.8024384,144.9775568,Umago,171-173 Brunswick St Fitzroy VIC 3065,Fitzroy,,4511,Cafes and Restaurants,
854,-37.7942931,144.9838482,Union Club Hotel,166-182 Gore St Fitzroy VIC 3065,Fitzroy,,4511,Cafes and Restaurants,
855,-37.802145,144.97764,Uptown Café,177 Brunswick St Fitzroy VIC 3065,Fitzroy,,4511,Cafes and Restaurants,
856,-37.7982994,144.9768502,Vaud'vile,62 Johnston St Fitzroy VIC 3065,Fitzroy,,4511,Cafes and Restaurants,
857,-37.798329,144.977002,Vegie Mum Fitzroy,72 Johnston St Fitzroy VIC 3065,Fitzroy,,4511,Cafes and Restaurants,
858,-37.79726,144.978844,Viet Rose Bakery & Cafe,330 Brunswick St Fitzroy VIC 3065,Fitzroy,,4511,Cafes and Restaurants,
859,-37.796409,144.978609,Viet Rose Restaurant,363 Brunswick St Fitzroy VIC 3065,Fitzroy,,4511,Cafes and Restaurants,
860,-37.7967356,144.9787445,Vincents Marketplace,379 Brunswick St Fitzroy VIC 3065,Fitzroy,,4122,Fruit and Vegetable Retailing,
861,-37.7989222,144.977281,Wa Kenbo,69-73 Victoria St Fitzroy VIC 3065,Fitzroy,,4511,Cafes and Restaurants,
862,-37.799495,144.978102,Wine Republic,265 Brunswick St Fitzroy VIC 3065,Fitzroy,,4129,Other Specialised Food Retailing,
863,-37.8042401,144.9772845,Wine Window,113 Brunswick St Fitzroy VIC 3065,Fitzroy,,4129,Other Specialised Food Retailing,
864,-37.7984,144.9783,Woolworths Fitzroy,243-255 Smith St Fitzroy VIC 3065,Fitzroy,,4110,Supermarket and Grocery Stores,
865,-37.7967356,144.9787445,Workers Club,51 Brunswick St Fitzroy VIC 3065,Fitzroy,,4511,Cafes and Restaurants,
866,-37.799557,144.978477,Xiang Bbq Restaurant,262 Brunswick St Fitzroy VIC 3065,Fitzroy,,4511,Cafes and Restaurants,
867,-37.8058662,144.982925,Yah Yahs,99-101 Smith St Fitzroy VIC 3065,Fitzroy,,4520,"Pubs, Taverns and Bars",
868,-37.7967356,144.9787445,Yong Green Food Pty Ltd,421 Brunswick St Fitzroy VIC 3065,Fitzroy,,4511,Cafes and Restaurants,
869,-37.7957136,144.9768252,Young Bloods Diner,54 Rose St Fitzroy VIC 3065,Fitzroy,,4511,Cafes and Restaurants,
870,-37.7957136,144.9768252,Zephyr and Bloom Cakes,5/165 Rose St Fitzroy VIC 3065,Fitzroy,,4129,Other Specialised Food Retailing,
871,-37.8087138,144.982468,Zouki on Parade,59-61 Victoria Pde Fitzroy VIC 3065,Fitzroy,,4511,Cafes and Restaurants,
872,-37.8087138,144.982468,Zouki on Parade Organic,73 Victoria Pde Fitzroy VIC 3065,Fitzroy,,4511,Cafes and Restaurants,
873,-37.7937436,144.9851701,lot 347,347-349 Smith St Fitzroy VIC 3065,Fitzroy,,4511,Cafes and Restaurants,
874,-37.7865,144.9897,1000 lire,211-213 St Georges Rd Fitzroy North VIC 3068,Fitzroy North,,4511,Cafes and Restaurants,
875,-37.7792131,144.9871684,7 Convenience Store,341 St Georges Rd Fitzroy North VIC 3068,Fitzroy North,,4110,Supermarket and Grocery Stores,
876,-37.7763966,144.9812882,A Continental Affair,53 Miller St Fitzroy North VIC 3068,Fitzroy North,,4511,Cafes and Restaurants,
877,-37.7803609,144.9861886,ASRC Catering,321 St Georges Rd Fitzroy North VIC 3068,Fitzroy North,,4513,Catering Services,
878,-37.785709,144.9817715,Adam's Kebabs,357 St Georges Rd Fitzroy North VIC 3068,Fitzroy North,,4512,Takeaway Food Services,
879,-37.7798387,144.9782407,Annoying Brother Espresso,650 Nicholson St Fitzroy North VIC 3068,Fitzroy North,,4511,Cafes and Restaurants,
880,-37.7875197,144.9802609,Aphro & Wolfe,566 Brunswick St Fitzroy North VIC 3068,Fitzroy North,,4511,Cafes and Restaurants,
881,-37.7900916,144.987192,Argo Fishop,320 Queens Pde Fitzroy North VIC 3068,Fitzroy North,,4511,Cafes and Restaurants,
882,-37.7804425,144.9861209,Australian Wine Clearance Centre,317 St Georges Rd Fitzroy North VIC 3068,Fitzroy North,,4129,Other Specialised Food Retailing,
883,-37.7865,144.9897,BP Fitzroy North,269-273 St Georges Rd Fitzroy North VIC 3068,Fitzroy North,,4110,Supermarket and Grocery Stores,
884,-37.788443,144.990582,Bakers Delight,330 Queens Pde Fitzroy North VIC 3068,Fitzroy North,,1174,Bakery Product Manufacturing (Non-factory based),
885,-37.788095,144.991333,Bean Around Bakery Cafe,350 Queens Pde Fitzroy North VIC 3068,Fitzroy North,,4511,Cafes and Restaurants,
886,-37.7839007,144.9830756,Billy van Creamy Pty Ltd,27-29 Best St Fitzroy North VIC 3068,Fitzroy North,,4511,Cafes and Restaurants,
887,-37.7832567,144.9821814,Birichino Cafe E Cucina,100 Scotchmer St Fitzroy North VIC 3068,Fitzroy North,,4511,Cafes and Restaurants,
888,-37.7831011,144.9829515,Blackhearts and Sparrows Wine Purveyors,119 Scotchmer St Fitzroy North VIC 3068,Fitzroy North,,4129,Other Specialised Food Retailing,
889,-37.7865,144.9897,Bocskai Centre,121-123 St Georges Rd Fitzroy North VIC 3068,Fitzroy North,,4530,Clubs (Hospitality),
890,-37.7807661,144.9782159,Boxx Cafe,796 Nicholson St Fitzroy North VIC 3068,Fitzroy North,,4511,Cafes and Restaurants,
891,-37.7846558,144.982522,Breakfast @ Timothy's,189 St Georges Rd Fitzroy North VIC 3068,Fitzroy North,,4511,Cafes and Restaurants,
892,-37.7865,144.9897,Caltex Starmart Fitzroy North,262-270 St Georges Rd Fitzroy North VIC 3068,Fitzroy North,,4512,Takeaway Food Services,
893,-37.788051,144.991462,Cavallini,354 Queens Pde Fitzroy North VIC 3068,Fitzroy North,,4511,Cafes and Restaurants,
894,-37.7900916,144.987192,Citrico,376 Queens Pde Fitzroy North VIC 3068,Fitzroy North,,4511,Cafes and Restaurants,
895,-37.7865,144.9897,Citrus,252-254 St Georges Rd Fitzroy North VIC 3068,Fitzroy North,,4511,Cafes and Restaurants,
896,-37.7819771,144.9902172,Clifton Child Care Co-op,121 Rushall Cres Fitzroy North VIC 3068,Fitzroy North,,8710,Child Care Services,
897,-37.7900916,144.987192,Clifton Hill Authorised Newsagency,316 Queens Pde Fitzroy North VIC 3068,Fitzroy North,,4129,Other Specialised Food Retailing,
898,-37.7900916,144.987192,Clifton Hill Lotto,306 Queens Pde Fitzroy North VIC 3068,Fitzroy North,,4129,Other Specialised Food Retailing,
899,-37.788681,144.989999,Cliftons Café & Deli,310 Queens Pde Fitzroy North VIC 3068,Fitzroy North,,4511,Cafes and Restaurants,
900,-37.7933424,144.9814841,Coles Express Fitzroy,75-81 Alexandra Pde Fitzroy North VIC 3068,Fitzroy North,,4110,Supermarket and Grocery Stores,
901,-37.7865,144.9897,Contemporary Catering,217-241 Queens Pde Fitzroy North VIC 3068,Fitzroy North,,8601,Aged Care Residential Services,
902,-37.7900916,144.987192,Cookshop Rotisserie,392 Queens Pde Fitzroy North VIC 3068,Fitzroy North,,4512,Takeaway Food Services,
903,-37.7759244,144.9790518,Curley Joe Express,892 Nicholson St Fitzroy North VIC 3068,Fitzroy North,,4512,Takeaway Food Services,
904,-37.788079,144.991394,Daily Catch,352 Queens Pde Fitzroy North VIC 3068,Fitzroy North,,4512,Takeaway Food Services,
905,-37.7865,144.9897,Danny's Burgers,358-360 St Georges Rd Fitzroy North VIC 3068,Fitzroy North,,4512,Takeaway Food Services,
906,-37.7830665,144.9826511,Dench Bakers,109 Scotchmer St Fitzroy North VIC 3068,Fitzroy North,,4511,Cafes and Restaurants,
907,-37.7786521,144.9823772,Deutsche Schule Melbourne,90 Barkly St Fitzroy North VIC 3068,Fitzroy North,,4511,Cafes and Restaurants,
908,-37.785709,144.9817715,Edinburgh Cricket Club,100C St Georges Rd Fitzroy North VIC 3068,Fitzroy North,,4530,Clubs (Hospitality),
909,-37.785709,144.9817715,El Chino,214 St Georges Rd Fitzroy North VIC 3068,Fitzroy North,,4511,Cafes and Restaurants,
910,-37.7787997,144.9836608,FROEBEL Early Learning Centre,138 Barkly St Fitzroy North VIC 3068,Fitzroy North,,8710,Child Care Services,
911,-37.7901129,144.9765303,Fireflies,414 Nicholson St Fitzroy North VIC 3068,Fitzroy North,,4511,Cafes and Restaurants,
912,-37.7839393,144.9830692,Fitzroy Asian Noodles,25 Best St Fitzroy North VIC 3068,Fitzroy North,,4512,Takeaway Food Services,
913,-37.785709,144.9817715,Fitzroy Bed & Breakfast,45 St Georges Rd Fitzroy North VIC 3068,Fitzroy North,,4400,Accommodation,
914,-37.785709,144.9817715,Fitzroy Football Club,100C St Georges Rd Fitzroy North VIC 3068,Fitzroy North,,4530,Clubs (Hospitality),
915,-37.785709,144.9817715,Fitzroy Junior Football Club,100C St Georges Rd Fitzroy North VIC 3068,Fitzroy North,,4530,Clubs (Hospitality),
916,-37.785709,144.9817715,Fitzroy Junior Football Club,100A St Georges Rd Fitzroy North VIC 3068,Fitzroy North,,4530,Clubs (Hospitality),
917,-37.7875197,144.9802609,Fitzroy Kebab House,465 Brunswick St Fitzroy North VIC 3068,Fitzroy North,,4511,Cafes and Restaurants,
918,-37.7858166,144.9848639,Fitzroy North Primary School,9-11 Alfred Cres Fitzroy North VIC 3068,Fitzroy North,,4511,Cafes and Restaurants,
919,-37.785709,144.9817715,Fitzroy Victoria Bowling & Sports Club Inc,100D St Georges Rd Fitzroy North VIC 3068,Fitzroy North,,4530,Clubs (Hospitality),
920,-37.785709,144.9817715,Fitzroy/Carlton Auskick,100C St Georges Rd Fitzroy North VIC 3068,Fitzroy North,,4511,Cafes and Restaurants,
921,-37.7875197,144.9802609,Flower Flower Pty Ltd,523 Brunswick St Fitzroy North VIC 3068,Fitzroy North,,4129,Other Specialised Food Retailing,
922,-37.789079,144.989017,Frootz on Parade,274 Queens Pde Fitzroy North VIC 3068,Fitzroy North,,4122,Fruit and Vegetable Retailing,
923,-37.7851689,144.9784136,Full Circles Food,23/6 Reid St Fitzroy North VIC 3068,Fitzroy North,,4513,Catering Services,
924,-37.7865,144.9897,Gatekeeper Games,323-327 St Georges Rd Fitzroy North VIC 3068,Fitzroy North,,4129,Other Specialised Food Retailing,
925,-37.779903,144.986937,Growers Espresso,332 St Georges Rd Fitzroy North VIC 3068,Fitzroy North,,4511,Cafes and Restaurants,
926,-37.7851607,144.9820983,Horn Please,167 St Georges Rd Fitzroy North VIC 3068,Fitzroy North,,4511,Cafes and Restaurants,
927,-37.7900916,144.987192,Hou Hai Dumpling House,470 Queens Pde Fitzroy North VIC 3068,Fitzroy North,,4511,Cafes and Restaurants,
928,-37.7851753,144.9784649,Jam Hands,25 Reid St Fitzroy North VIC 3068,Fitzroy North,,1140,Fruit and Vegetable Processing,
929,-37.7841564,144.9829365,Just Falafs,207 St Georges Rd Fitzroy North VIC 3068,Fitzroy North,,4512,Takeaway Food Services,
930,-37.7900916,144.987192,Kebabish & Grill,296 Queens Pde Fitzroy North VIC 3068,Fitzroy North,,4511,Cafes and Restaurants,
931,-37.785709,144.9817715,Khao Mai Thai,356 St Georges Rd Fitzroy North VIC 3068,Fitzroy North,,4511,Cafes and Restaurants,
932,-37.78618,144.9942364,Kids on Queens Parade Child Care Centre,476 Queens Pde Fitzroy North VIC 3068,Fitzroy North,,8710,Child Care Services,
933,-37.7900916,144.987192,La Maha,308 Queens Pde Fitzroy North VIC 3068,Fitzroy North,,4511,Cafes and Restaurants,
934,-37.7865,144.9897,La Sera Woodfire Pizzeria,393-395 St Georges Rd Fitzroy North VIC 3068,Fitzroy North,,4511,Cafes and Restaurants,
935,-37.7918197,144.9773863,Lagotto,1 York St Fitzroy North VIC 3068,Fitzroy North,,4511,Cafes and Restaurants,
936,-37.7828717,144.9793683,Little Cardigan,146 Scotchmer St Fitzroy North VIC 3068,Fitzroy North,,1174,Bakery Product Manufacturing (Non-factory based),
937,-37.7828717,144.9793683,Loafer Bread,146 Scotchmer St Fitzroy North VIC 3068,Fitzroy North,,1174,Bakery Product Manufacturing (Non-factory based),
938,-37.7803729,144.9865501,Long Play,318 St Georges Rd Fitzroy North VIC 3068,Fitzroy North,,4511,Cafes and Restaurants,
939,-37.7875197,144.9802609,Lord Newry Hotel,543 Brunswick St Fitzroy North VIC 3068,Fitzroy North,,4511,Cafes and Restaurants,
940,-37.7796732,144.9867595,Maillard,347 St Georges Rd Fitzroy North VIC 3068,Fitzroy North,,4511,Cafes and Restaurants,
941,-37.7802894,144.9866216,Malaymas,320 St Georges Rd Fitzroy North VIC 3068,Fitzroy North,,4511,Cafes and Restaurants,
942,-37.7858166,144.9848639,Mama Paella,2/81 Alfred Cres Fitzroy North VIC 3068,Fitzroy North,,4129,Other Specialised Food Retailing,
943,-37.7770408,144.9870366,Mary Miller,171 Miller St Fitzroy North VIC 3068,Fitzroy North,,4511,Cafes and Restaurants,
944,-37.7875197,144.9802609,Matteo's Restaurant,531-535 Brunswick St Fitzroy North VIC 3068,Fitzroy North,,4511,Cafes and Restaurants,
945,-37.7900916,144.987192,McCoppins-Clifton Hill,294 Queens Pde Fitzroy North VIC 3068,Fitzroy North,,4110,Supermarket and Grocery Stores,
946,-37.78721,144.993626,McDonald's Family Restaurant Clifton Hill,199 Queens Pde Fitzroy North VIC 3068,Fitzroy North,,4511,Cafes and Restaurants,
947,-37.788541,144.990351,Mecca Brothers Fruit and Vegetables,322 Queens Pde Fitzroy North VIC 3068,Fitzroy North,,4122,Fruit and Vegetable Retailing,
948,-37.7906955,144.9764179,Melbourne City Cafe,400 Nicholson St Fitzroy North VIC 3068,Fitzroy North,,4511,Cafes and Restaurants,
949,-37.7765242,144.9811449,Merri Creek Primary School,175 Miller St Fitzroy North VIC 3068,Fitzroy North,,4511,Cafes and Restaurants,
950,-37.7884712,144.9908436,Mitte,76 Michael St Fitzroy North VIC 3068,Fitzroy North,,4511,Cafes and Restaurants,
951,-37.7900916,144.987192,Mixed Business Café,486 Queens Pde Fitzroy North VIC 3068,Fitzroy North,,4511,Cafes and Restaurants,
952,-37.7900916,144.987192,Mojo's Weird Pizza,384 Queens Pde Fitzroy North VIC 3068,Fitzroy North,,4512,Takeaway Food Services,
953,-37.7765242,144.9811449,Monasterie,2/161 Miller St Fitzroy North VIC 3068,Fitzroy North,,4129,Other Specialised Food Retailing,
954,-37.7841257,144.982962,Monty's Bar,209 St Georges Rd Fitzroy North VIC 3068,Fitzroy North,,4520,"Pubs, Taverns and Bars",
955,-37.7759244,144.9790518,Morning Glory Drive Thru,892 Nicholson St Fitzroy North VIC 3068,Fitzroy North,,4512,Takeaway Food Services,
956,-37.784881,144.9823421,Moroccan Soup Bar,183 St Georges Rd Fitzroy North VIC 3068,Fitzroy North,,4511,Cafes and Restaurants,
957,-37.7804563,144.9864785,Moroccan Soupbar Two Go,316 St Georges Rd Fitzroy North VIC 3068,Fitzroy North,,4512,Takeaway Food Services,
958,-37.7798387,144.9782407,Neighbourhood Wine,612 Nicholson St Fitzroy North VIC 3068,Fitzroy North,,4511,Cafes and Restaurants,
959,-37.7828031,144.9778716,Nicholson Street Baker,706 Nicholson St Fitzroy North VIC 3068,Fitzroy North,,1140,Fruit and Vegetable Processing,
960,-37.7900916,144.987192,Nomadic Dreams,8/86 Queens Pde Fitzroy North VIC 3068,Fitzroy North,,4129,Other Specialised Food Retailing,
961,-37.7852536,144.9799874,North Fitzroy Arms,300-304 Rae St Fitzroy North VIC 3068,Fitzroy North,,4511,Cafes and Restaurants,
962,-37.7778212,144.9851255,North Fitzroy Child Care Co-Op,173 Clauscen St Fitzroy North VIC 3068,Fitzroy North,,8710,Child Care Services,
963,-37.7830732,144.9827089,North Island,111 Scotchmer St Fitzroy North VIC 3068,Fitzroy North,,4511,Cafes and Restaurants,
964,-37.7840029,144.9830639,Obelix & Co,217 St Georges Rd Fitzroy North VIC 3068,Fitzroy North,,4511,Cafes and Restaurants,
965,-37.7819771,144.9902172,Old Colonists Association Sumner Hall and Kiosk,20 Rushall Cres Fitzroy North VIC 3068,Fitzroy North,,4511,Cafes and Restaurants,
966,-37.7865,144.9897,Os Kebabs,786-794 Nicholson St Fitzroy North VIC 3068,Fitzroy North,,4512,Takeaway Food Services,
967,-37.78696,144.993792,Osteria Italiana,201 Queens Pde Fitzroy North VIC 3068,Fitzroy North,,4511,Cafes and Restaurants,
968,-37.7865,144.9897,Panna Thai Restaurant,244-246 St Georges Rd Fitzroy North VIC 3068,Fitzroy North,,4511,Cafes and Restaurants,
969,-37.7828717,144.9793683,Parkview Hotel,131-137 Scotchmer St Fitzroy North VIC 3068,Fitzroy North,,4511,Cafes and Restaurants,
970,-37.785709,144.9817715,Piccante Caffe,216 St Georges Rd Fitzroy North VIC 3068,Fitzroy North,,4511,Cafes and Restaurants,
971,-37.7828717,144.9793683,Piccolino Pizza & Gnocchi Bar,148 Scotchmer St Fitzroy North VIC 3068,Fitzroy North,,4511,Cafes and Restaurants,
972,-37.784342,144.9829662,Piedimontes IGA Supermarket,37-45 Best St Fitzroy North VIC 3068,Fitzroy North,,4110,Supermarket and Grocery Stores,
973,-37.784342,144.9829662,Pinotta,32 Best St Fitzroy North VIC 3068,Fitzroy North,,4511,Cafes and Restaurants,
974,-37.7854143,144.980508,Prince and The Duke,73 Reid St Fitzroy North VIC 3068,Fitzroy North,,4511,Cafes and Restaurants,
975,-37.7900916,144.987192,Q Cafe,304 Queens Pde Fitzroy North VIC 3068,Fitzroy North,,4511,Cafes and Restaurants,
976,-37.788051,144.991462,Queen Margaret,356 Queens Pde Fitzroy North VIC 3068,Fitzroy North,,4511,Cafes and Restaurants,
977,-37.7806763,144.9782325,Railway Hotel,800 Nicholson St Fitzroy North VIC 3068,Fitzroy North,,4511,Cafes and Restaurants,
978,-37.7792519,144.9871339,Redwood Tasting Room,345 St Georges Rd Fitzroy North VIC 3068,Fitzroy North,,4520,"Pubs, Taverns and Bars",
979,-37.7766944,144.9812959,Richmond Seafood Tavern,3 Rae St Fitzroy North VIC 3068,Fitzroy North,,4511,Cafes and Restaurants,
980,-37.7798387,144.9782407,Royal Oak Hotel,442-444 Nicholson St Fitzroy North VIC 3068,Fitzroy North,,4511,Cafes and Restaurants,
981,-37.7865,144.9897,Ryne,203-205 St Georges Rd Fitzroy North VIC 3068,Fitzroy North,,4511,Cafes and Restaurants,
982,-37.7900916,144.987192,Sacred Fig,398 Queens Pde Fitzroy North VIC 3068,Fitzroy North,,4511,Cafes and Restaurants,
983,-37.7900916,144.987192,Social Food Project Pty Ltd,492 Queens Pde Fitzroy North VIC 3068,Fitzroy North,,4513,Catering Services,
984,-37.7830054,144.9821662,Sortino Social Club Inc,99-101 Scotchmer St Fitzroy North VIC 3068,Fitzroy North,,4530,Clubs (Hospitality),
985,-37.785709,144.9817715,St Georges Fish & Chips,350 St Georges Rd Fitzroy North VIC 3068,Fitzroy North,,4512,Takeaway Food Services,
986,-37.7900916,144.987192,Sumos Noodles & Sushi Bar (Clifton Hill),298 Queens Pde Fitzroy North VIC 3068,Fitzroy North,,4512,Takeaway Food Services,
987,-37.7831082,144.9830132,Super Tasty Rooster,121 Scotchmer St Fitzroy North VIC 3068,Fitzroy North,,4512,Takeaway Food Services,
988,-37.7865,144.9897,Supermaxi,305-307 St Georges Rd Fitzroy North VIC 3068,Fitzroy North,,4511,Cafes and Restaurants,
989,-37.785709,144.9817715,Taiyo Sun,394 St Georges Rd Fitzroy North VIC 3068,Fitzroy North,,4511,Cafes and Restaurants,
990,-37.7900916,144.987192,Terminus Hotel,492 Queens Pde Fitzroy North VIC 3068,Fitzroy North,,4511,Cafes and Restaurants,
991,-37.785709,144.9817715,Thai Take Away Food,354 St Georges Rd Fitzroy North VIC 3068,Fitzroy North,,4511,Cafes and Restaurants,
992,-37.7875197,144.9802609,That Burger Joint,469 Brunswick St Fitzroy North VIC 3068,Fitzroy North,,4512,Takeaway Food Services,
993,-37.7846093,144.985579,The Boite World Music Café,11 Mark St Fitzroy North VIC 3068,Fitzroy North,,4511,Cafes and Restaurants,
994,-37.7825102,144.9778831,The Empress Hotel,708-714 Nicholson St Fitzroy North VIC 3068,Fitzroy North,,4511,Cafes and Restaurants,
995,-37.7884712,144.9908436,The Fitzroy Naturopath,76 Michael St Fitzroy North VIC 3068,Fitzroy North,,1140,Fruit and Vegetable Processing,
996,-37.7865,144.9897,The Fitzroy Pinnacle,251-255 St Georges Rd Fitzroy North VIC 3068,Fitzroy North,,4511,Cafes and Restaurants,
997,-37.7766944,144.9812959,The Food Repository,134 Rae St Fitzroy North VIC 3068,Fitzroy North,,4129,Other Specialised Food Retailing,
998,-37.7823553,144.9779138,The Kebab House,724 Nicholson St Fitzroy North VIC 3068,Fitzroy North,,4512,Takeaway Food Services,
999,-37.786815,144.99393,The Que Club,205-211 Queens Pde Fitzroy North VIC 3068,Fitzroy North,,4511,Cafes and Restaurants,
1000,-37.7900916,144.987192,The Recreation,162 Queens Pde Fitzroy North VIC 3068,Fitzroy North,,4511,Cafes and Restaurants,
